{"type":"FeatureCollection", "features": [
{"type":"Feature","geometry":{"type":"MultiPolygon","coordinates":[[[[120.36,14.53],[121.01,13.66],[121.62,13.9],[122.39,13.3],[122.49,13.88],[123.24,13.03],[123.82,12.98],[122.67,14.27],[121.73,14.11],[121.24,15.31],[122.4,17.11],[122.05,18.45],[120.56,18.43],[120.2,16.04],[119.77,15.47],[120.36,14.53]]],[[[121.09,12.2],[121.3,13.13],[120.34,13.39],[121.09,12.2]]],[[[125.32,11.12],[125.25,12.29],[124.26,12.42],[125.32,11.12]]],[[[121.87,10.47],[122.9,11.15],[121.99,11.76],[121.87,10.47]]],[[[118.86,10.02],[119.56,10.5],[119.21,11.13],[118.86,10.02]]],[[[122.94,9.05],[123.31,10.74],[122.92,10.85],[122.4,9.48],[122.94,9.05]]],[[[117.27,8.45],[118.5,9.48],[118.51,9.92],[117.27,8.45]]],[[[126.05,6.61],[126.27,8.43],[125.43,9.78],[125.46,9.05],[123.66,8.01],[123.49,8.5],[122.09,7.78],[123.46,7.79],[124.07,7.26],[123.97,6.34],[124.8,5.79],[125.53,5.94],[125.61,7.24],[126.05,6.61]]]]},"properties":{"NAME":null,"SUBJECTO":null,"PARTOF":null}},
{"type":"Feature","geometry":{"type":"MultiPolygon","coordinates":[[[[175.31,-37.32],[174.22,-35.34],[172.63,-34.56],[174.76,-37.3],[174.65,-38.98],[173.8,-39.42],[175.35,-40.3],[174.9,-41.3],[175.37,-41.66],[177.16,-39.85],[177.02,-39.45],[178.41,-38.77],[178.57,-37.92],[177.53,-38.2],[175.31,-37.32]]],[[[172.06,-43.92],[174.23,-42.01],[174.06,-41.29],[173.26,-41.54],[172.44,-40.75],[172.09,-41.71],[171.02,-42.89],[168.42,-44.22],[166.55,-45.97],[169.4,-46.71],[170.61,-45.95],[171.38,-44.34],[172.06,-43.92]]]]},"properties":{"NAME":null,"SUBJECTO":null,"PARTOF":null}},
{"type":"Feature","geometry":{"type":"Polygon","coordinates":[[[-24.22,65.53],[-21.95,65.38],[-23.61,64.75],[-21.49,64.38],[-22.37,63.77],[-18.64,63.32],[-16.53,63.78],[-13.69,64.78],[-13.65,65.5],[-16.39,66.45],[-21.08,65.21],[-22.68,66.39],[-24.22,65.53]]]},"properties":{"NAME":null,"SUBJECTO":null,"PARTOF":null}},
{"type":"Feature","geometry":{"type":"Polygon","coordinates":[[[-39.69,65.19],[-37.15,66.32],[-37.58,65.55],[-34.43,66.38],[-32.96,67.64],[-26.96,68.5],[-22.16,70.06],[-27.47,70.21],[-27.61,71.07],[-25.29,71.57],[-23.75,70.59],[-21.71,70.39],[-21.9,71.5],[-27.44,73.29],[-24.08,73.76],[-20.33,73.42],[-21.76,74.31],[-19.57,76.11],[-22.38,76.64],[-18.06,76.81],[-19.18,77.82],[-21.77,77.77],[-19.76,78.87],[-19.05,80.43],[-16.44,80.45],[-12.71,81.62],[-16.47,81.9],[-23.34,80.62],[-22.06,81.96],[-32.6,81.97],[-22.59,82.42],[-26.42,83.34],[-32.51,83.58],[-45.21,82.97],[-44.68,81.73],[-49.65,82.48],[-49.94,81.68],[-53.77,82.24],[-60.04,81.88],[-62.81,81.16],[-63.36,78.24],[-62.45,76.34],[-58.64,75.79],[-54.56,72.87],[-55.63,71.73],[-51.72,71.59],[-50.57,69.87],[-50.54,67.49],[-49.47,67.03],[-49.06,64.79],[-47.66,62.79],[-46.13,61.76],[-46.16,60.94],[-43.58,59.94],[-44.26,61.87],[-43.85,64.21],[-42.79,65.4],[-39.69,65.19]]]},"properties":{"NAME":null,"SUBJECTO":null,"PARTOF":null}},
{"type":"Feature","geometry":{"type":"MultiPolygon","coordinates":[[[[-73.11,-72.75],[-70.02,-72.67],[-68.4,-71.13],[-70.33,-68.96],[-72.39,-69.26],[-72.11,-71.05],[-75.28,-71.67],[-74.35,-72.21],[-72.03,-71.82],[-73.11,-72.75]]],[[[-102.55,-72.13],[-97.14,-72.67],[-97.22,-71.82],[-102.55,-72.13]]],[[[-55.18,-80.94],[-44.83,-80.32],[-44.21,-78.39],[-48.85,-78.08],[-55.18,-80.94]]],[[[-164.06,-79.36],[-158.8,-79.67],[-162.59,-78.82],[-164.06,-79.36]]],[[[169.77,-83.42],[158.14,-80.32],[159.84,-79.16],[166.75,-78.6],[162.33,-76.96],[162.35,-75.11],[165.19,-74.67],[164.62,-74.17],[168.9,-73.54],[170.73,-71.9],[167.63,-70.87],[160.6,-70.22],[157.31,-69.16],[151.09,-68.89],[150.89,-68.54],[146.88,-68],[145.59,-67.22],[141.16,-66.72],[134.21,-66.18],[130.27,-66.25],[129.01,-67.03],[122.46,-66.65],[118.29,-67.07],[113.01,-65.76],[110.61,-66.06],[109.4,-66.71],[102.63,-65.93],[100.88,-66.08],[99.12,-66.89],[95.72,-66.53],[88.65,-66.76],[88.3,-66.07],[87.22,-66.99],[81.81,-67.3],[78.26,-68.38],[71.92,-70.55],[69.53,-72.4],[67.36,-71.71],[69.07,-70.59],[69.77,-68.64],[69.37,-67.84],[62.81,-67.61],[56.63,-66.94],[57.1,-66.52],[55.14,-65.96],[52.45,-65.99],[50.01,-66.59],[50.27,-67.14],[42.56,-68.11],[39.65,-68.93],[38.33,-70.03],[33.54,-68.54],[32.75,-69.35],[23.71,-70.59],[17.6,-70.08],[12.66,-70.32],[11.11,-70.86],[8.49,-70.08],[0.68,-71.32],[-6.32,-71.42],[-7.2,-70.89],[-8.82,-71.82],[-9.75,-71.05],[-12.33,-71.68],[-11.83,-72.32],[-16.4,-73.44],[-14.45,-74.06],[-17.17,-74.76],[-18.4,-75.69],[-23.58,-75.92],[-33.16,-77.39],[-36.41,-79.16],[-29.57,-79.22],[-28.91,-80.48],[-38.03,-80.94],[-43.83,-81.79],[-52.25,-82.02],[-58.97,-83.18],[-60.21,-82.33],[-78.83,-80.01],[-77.98,-79.09],[-82.92,-79.16],[-84.16,-78.24],[-79.14,-78.93],[-80.69,-77.57],[-74.5,-78.08],[-78.6,-76.61],[-70.56,-76.69],[-64.46,-75.69],[-61.37,-73.91],[-60.83,-72.75],[-61.68,-70.82],[-63.84,-68.65],[-65.15,-68.5],[-65.38,-67.34],[-63.84,-66.49],[-62.76,-66.65],[-61.13,-64.87],[-57.27,-63.71],[-57.43,-63.25],[-64.23,-65.25],[-67.86,-67.57],[-67.08,-68.65],[-68.78,-69.81],[-67.08,-71.82],[-67.63,-72.75],[-75.58,-73.75],[-80.99,-73.25],[-81.77,-74.02],[-86.32,-73.25],[-99.79,-73],[-103.25,-73.56],[-100.05,-75.31],[-105.64,-75.07],[-110.56,-75.3],[-110.43,-74.29],[-120.17,-74.53],[-128.98,-74.91],[-134.77,-74.64],[-140.57,-75.26],[-149.61,-76.34],[-147.13,-76.53],[-146.15,-77.46],[-149.99,-77.73],[-154.17,-77.12],[-158.03,-77.27],[-154.55,-79.12],[-148.6,-79.67],[-145.67,-80.52],[-148.84,-81.37],[-154.48,-81.06],[-152.08,-82.6],[-152,-84.38],[-138.82,-85.01],[-156.56,-85.46],[-167.23,-84.76],[-180,-84.32],[-180,-85.32],[-180,-86.32],[-180,-87.32],[-180,-88.32],[-180,-89.32],[-180,-90],[-179.2,-90],[-178.2,-90],[-177.2,-90],[-176.2,-90],[-175.2,-90],[-174.2,-90],[-173.2,-90],[-172.2,-90],[-171.2,-90],[-170.2,-90],[-169.2,-90],[-168.2,-90],[-167.2,-90],[-166.2,-90],[-165.2,-90],[-164.2,-90],[-163.2,-90],[-162.2,-90],[-161.2,-90],[-160.2,-90],[-159.2,-90],[-158.2,-90],[-157.2,-90],[-156.2,-90],[-155.2,-90],[-154.2,-90],[-153.2,-90],[-152.2,-90],[-151.2,-90],[-150.2,-90],[-149.2,-90],[-148.2,-90],[-147.2,-90],[-146.2,-90],[-145.2,-90],[-144.2,-90],[-143.2,-90],[-142.2,-90],[-141.2,-90],[-140.2,-90],[-139.2,-90],[-138.2,-90],[-137.2,-90],[-136.2,-90],[-135.2,-90],[-134.2,-90],[-133.2,-90],[-132.2,-90],[-131.2,-90],[-130.2,-90],[-129.2,-90],[-128.2,-90],[-127.2,-90],[-126.2,-90],[-125.2,-90],[-124.2,-90],[-123.2,-90],[-122.2,-90],[-121.2,-90],[-120.2,-90],[-119.2,-90],[-118.2,-90],[-117.2,-90],[-116.2,-90],[-115.2,-90],[-114.2,-90],[-113.2,-90],[-112.2,-90],[-111.2,-90],[-110.2,-90],[-109.2,-90],[-108.2,-90],[-107.2,-90],[-106.2,-90],[-105.2,-90],[-104.2,-90],[-103.2,-90],[-102.2,-90],[-101.2,-90],[-100.2,-90],[-99.2,-90],[-98.2,-90],[-97.2,-90],[-96.2,-90],[-95.2,-90],[-94.2,-90],[-93.2,-90],[-92.2,-90],[-91.2,-90],[-90,-90],[-89.2,-90],[-88.2,-90],[-87.2,-90],[-86.2,-90],[-85.2,-90],[-84.2,-90],[-83.2,-90],[-82.2,-90],[-81.2,-90],[-80.2,-90],[-79.2,-90],[-78.2,-90],[-77.2,-90],[-76.2,-90],[-75.2,-90],[-74.2,-90],[-73.2,-90],[-72.2,-90],[-71.2,-90],[-70.2,-90],[-69.2,-90],[-68.2,-90],[-67.2,-90],[-66.2,-90],[-65.2,-90],[-64.2,-90],[-63.2,-90],[-62.2,-90],[-61.2,-90],[-60.2,-90],[-59.2,-90],[-58.2,-90],[-57.2,-90],[-56.2,-90],[-55.2,-90],[-54.2,-90],[-53.2,-90],[-52.2,-90],[-51.2,-90],[-50.2,-90],[-49.2,-90],[-48.2,-90],[-47.2,-90],[-46.2,-90],[-45.2,-90],[-44.2,-90],[-43.2,-90],[-42.2,-90],[-41.2,-90],[-40.2,-90],[-39.2,-90],[-38.2,-90],[-37.2,-90],[-36.2,-90],[-35.2,-90],[-34.2,-90],[-33.2,-90],[-32.2,-90],[-31.2,-90],[-30.2,-90],[-29.2,-90],[-28.2,-90],[-27.2,-90],[-26.2,-90],[-25.2,-90],[-24.2,-90],[-23.2,-90],[-22.2,-90],[-21.2,-90],[-20.2,-90],[-19.2,-90],[-18.2,-90],[-17.2,-90],[-16.2,-90],[-15.2,-90],[-14.2,-90],[-13.2,-90],[-12.2,-90],[-11.2,-90],[-10.2,-90],[-9.2,-90],[-8.2,-90],[-7.2,-90],[-6.2,-90],[-5.2,-90],[-4.2,-90],[-3.2,-90],[-2.2,-90],[-1.2,-90],[-0.2,-90],[0.78,-90],[1.78,-90],[2.78,-90],[3.78,-90],[4.78,-90],[5.78,-90],[6.78,-90],[7.78,-90],[8.78,-90],[9.78,-90],[10.78,-90],[11.78,-90],[12.78,-90],[13.78,-90],[14.78,-90],[15.78,-90],[16.78,-90],[17.78,-90],[18.78,-90],[19.78,-90],[20.78,-90],[21.78,-90],[22.78,-90],[23.78,-90],[24.78,-90],[25.78,-90],[26.78,-90],[27.78,-90],[28.78,-90],[29.78,-90],[30.78,-90],[31.78,-90],[32.78,-90],[33.78,-90],[34.78,-90],[35.78,-90],[36.78,-90],[37.78,-90],[38.78,-90],[39.78,-90],[40.78,-90],[41.78,-90],[42.78,-90],[43.78,-90],[44.78,-90],[45.78,-90],[46.78,-90],[47.78,-90],[48.78,-90],[49.78,-90],[50.78,-90],[51.78,-90],[52.78,-90],[53.78,-90],[54.78,-90],[55.78,-90],[56.78,-90],[57.78,-90],[58.78,-90],[59.78,-90],[60.78,-90],[61.78,-90],[62.78,-90],[63.78,-90],[64.78,-90],[65.78,-90],[66.78,-90],[67.78,-90],[68.78,-90],[69.78,-90],[70.78,-90],[71.78,-90],[72.78,-90],[73.78,-90],[74.78,-90],[75.78,-90],[76.78,-90],[77.78,-90],[78.78,-90],[79.78,-90],[80.78,-90],[81.78,-90],[82.78,-90],[83.78,-90],[84.78,-90],[85.78,-90],[86.78,-90],[87.78,-90],[88.78,-90],[89.78,-90],[89.8,-90],[90,-90],[91.78,-90],[92.78,-90],[93.78,-90],[94.78,-90],[95.78,-90],[96.78,-90],[97.78,-90],[98.78,-90],[99.78,-90],[100.78,-90],[101.78,-90],[102.78,-90],[103.78,-90],[104.78,-90],[105.78,-90],[106.78,-90],[107.78,-90],[108.78,-90],[109.78,-90],[110.78,-90],[111.78,-90],[112.78,-90],[113.78,-90],[114.78,-90],[115.78,-90],[116.78,-90],[117.78,-90],[118.78,-90],[119.78,-90],[120.78,-90],[121.78,-90],[122.78,-90],[123.78,-90],[124.78,-90],[125.78,-90],[126.78,-90],[127.78,-90],[128.78,-90],[129.78,-90],[130.78,-90],[131.78,-90],[132.78,-90],[133.78,-90],[134.78,-90],[135.78,-90],[136.78,-90],[137.78,-90],[138.78,-90],[139.78,-90],[140.78,-90],[141.78,-90],[142.78,-90],[143.78,-90],[144.78,-90],[145.78,-90],[146.78,-90],[147.78,-90],[148.78,-90],[149.78,-90],[150.78,-90],[151.78,-90],[152.78,-90],[153.78,-90],[154.78,-90],[155.78,-90],[156.78,-90],[157.78,-90],[158.78,-90],[159.78,-90],[160.78,-90],[161.78,-90],[162.78,-90],[163.78,-90],[164.78,-90],[165.78,-90],[166.78,-90],[167.78,-90],[168.78,-90],[169.78,-90],[170.78,-90],[171.78,-90],[172.78,-90],[173.78,-90],[174.78,-90],[175.78,-90],[176.78,-90],[177.78,-90],[178.78,-90],[180,-90],[180,-89.32],[180,-88.32],[180,-87.32],[180,-86.32],[180,-85.32],[180,-84.34],[169.77,-83.42]]]]},"properties":{"NAME":null,"SUBJECTO":null,"PARTOF":null}},
{"type":"Feature","geometry":{"type":"MultiPolygon","coordinates":[[[[140.87,-2.79],[137.85,-1.61],[136.27,-2.42],[135.25,-3.54],[134.28,-2.85],[133.91,-1.01],[132.25,-0.53],[131.21,-1.02],[132.22,-2.34],[133.86,-2.25],[133.78,-2.72],[132.02,-2.82],[132.75,-3.4],[132.93,-4.27],[133.75,-3.19],[133.86,-3.77],[134.78,-4.31],[137.39,-5.12],[137.82,-5.43],[139.16,-7.73],[138.92,-8.32],[139.98,-8.24],[140.95,-9.27],[142.61,-9.38],[143.33,-9],[142.25,-8.31],[143.44,-8.36],[144.38,-7.76],[145.82,-8.1],[146.65,-9.28],[147.87,-10.18],[150.42,-10.29],[148.59,-9.16],[147.38,-7.8],[146.91,-6.89],[147.74,-6.74],[147.38,-6.12],[145.59,-5.42],[145.73,-5],[143.45,-3.61],[140.87,-2.79]]],[[[149.55,-6.41],[151.8,-5.71],[152.27,-4.78],[150.29,-5.71],[149.87,-5.4],[148.42,-5.88],[149.55,-6.41]]],[[[123.49,-10.35],[125.21,-9.4],[126.87,-8.81],[127.04,-8.48],[125.08,-8.77],[123.67,-9.75],[123.49,-10.35]]],[[[127.63,-0.02],[128.63,1.02],[128.55,1.45],[127.42,0.98],[127.63,-0.02]]],[[[122.95,-8.38],[121.43,-8.72],[120.57,-8.39],[119.94,-8.94],[121.69,-9],[122.95,-8.38]]],[[[130.78,-3.88],[130.37,-3.13],[128.04,-3.06],[129.91,-3.39],[130.78,-3.88]]],[[[138.18,-8.55],[138.89,-7.78],[138.19,-7.68],[137.68,-8.46],[138.18,-8.55]]],[[[120.28,-10.38],[119.79,-9.46],[118.9,-9.68],[120.28,-10.38]]],[[[120.43,0.64],[119.91,0.54],[118.68,-2.9],[118.79,-3.66],[119.46,-3.81],[119.48,-5.8],[120.25,-5.59],[120.14,-3.08],[121,-3.05],[120.88,-3.72],[121.87,-4.96],[122.65,-4.51],[122.26,-3.21],[121.26,-2.1],[122.22,-1.65],[122.98,-0.72],[121.46,-0.99],[120.51,-1.45],[119.87,-0.46],[120.34,0.36],[124.23,0.3],[124.86,1.05],[122.73,0.67],[120.77,1.14],[120.43,0.64]]]]},"properties":{"NAME":null,"SUBJECTO":null,"PARTOF":null}},
{"type":"Feature","geometry":{"type":"MultiPolygon","coordinates":[[[[13.25,79.8],[11.28,79.71],[13.06,78.35],[16.66,76.73],[20.91,78.81],[16.33,80.03],[16.39,79.23],[13.25,79.8]]],[[[21.97,79.78],[23.82,79.15],[27.2,79.94],[19.92,80.63],[18.33,79.88],[21.97,79.78]]]]},"properties":{"NAME":null,"SUBJECTO":null,"PARTOF":null}},
{"type":"Feature","geometry":{"type":"Polygon","coordinates":[[[80.56,5.93],[81.2,6.08],[81.87,7.08],[80.66,9.3],[79.71,8.93],[79.85,7.06],[80.56,5.93]]]},"properties":{"NAME":"Simhala","SUBJECTO":"Simhala","PARTOF":"Simhala"}},
{"type":"Feature","geometry":{"type":"Polygon","coordinates":[[[-100.49,20.9],[-101.01,20.28],[-100.75,19.59],[-99.91,19.03],[-99.14,18.92],[-98.62,19.21],[-98.48,19.8],[-99.11,20.59],[-100.49,20.9]]]},"properties":{"NAME":"Teotihuacan","SUBJECTO":"Teotihuacan","PARTOF":"Teotihuacán"}},
{"type":"Feature","geometry":{"type":"Polygon","coordinates":[[[-99.21,17.71],[-99.18,17.29],[-99.02,16.82],[-97.69,16.39],[-96.44,16.22],[-95.5,16.53],[-95.43,17.43],[-96.19,17.88],[-97.06,18.06],[-99.21,17.71]]]},"properties":{"NAME":"Monte Albán","SUBJECTO":"Monte Albán","PARTOF":"Monte Albán"}},
{"type":"Feature","geometry":{"type":"Polygon","coordinates":[[[-87.57,15.91],[-88.94,15.9],[-88.44,16.44],[-88.14,18.89],[-87.88,18.38],[-87.65,20.19],[-86.94,20.98],[-87.2,21.53],[-88.33,21.59],[-90.56,20.99],[-90.93,19.38],[-91.7,18.82],[-92.94,18.59],[-93.14,16.98],[-93.59,15.74],[-93.33,15.53],[-92.9,15.19],[-92.47,14.79],[-91.24,13.95],[-90,13.75],[-88.24,14.84],[-87.57,15.91]]]},"properties":{"NAME":"Maya chiefdoms and states","SUBJECTO":"Maya chiefdoms and states","PARTOF":"Maya chiefdoms and states"}},
{"type":"Feature","geometry":{"type":"MultiPolygon","coordinates":[[[[-58.14,48.6],[-59.16,47.67],[-54.78,47.71],[-53.07,46.73],[-52.73,47.45],[-53.58,47.74],[-54.13,48.84],[-53.51,49.28],[-55.11,49.28],[-56.66,50.06],[-55.42,51.43],[-56.15,51.47],[-58.13,49.5],[-58.14,48.6]]],[[[-60.81,45.64],[-60.26,46.94],[-61.38,46.33],[-60.81,45.64]]]]},"properties":{"NAME":null,"SUBJECTO":null,"PARTOF":null}},
{"type":"Feature","geometry":{"type":"MultiPolygon","coordinates":[[[[56.96,73.36],[60.46,75.16],[66.55,75.98],[68.94,76.61],[59.02,75.8],[55.89,74.1],[54.02,73.73],[56.96,73.36]]],[[[52.61,72.74],[51.48,71.84],[54.31,71.21],[55,70.52],[57.24,70.69],[55.72,71.64],[56.51,73.17],[52.61,72.74]]],[[[8.18,56.8],[10.26,57.01],[10.56,57.75],[8.18,56.8]]]]},"properties":{"NAME":null,"SUBJECTO":null,"PARTOF":null}},
{"type":"Feature","geometry":{"type":"Polygon","coordinates":[[[33.35,23.35],[32.61,22.82],[31.06,22.68],[29.85,20.12],[30,17.41],[30.27,15.54],[31.06,13.13],[31.8,12.52],[32.88,12.47],[35.38,12.8],[35.72,13.22],[35.83,14.22],[35.97,15.48],[35.23,18.51],[34.55,20.18],[34.53,20.17],[33.35,23.35]]]},"properties":{"NAME":"Meroe","SUBJECTO":"Meroe","PARTOF":"Meroe"}},
{"type":"Feature","geometry":{"type":"Polygon","coordinates":[[[8.58,3.07],[8.83,3.61],[8.36,3.32],[8.58,3.07]]]},"properties":{"NAME":null,"SUBJECTO":null,"PARTOF":null}},
{"type":"Feature","geometry":{"type":"MultiPolygon","coordinates":[[[[130.58,30.91],[131.32,31.51],[131.83,32.69],[130.86,33.68],[129.34,33.15],[130.5,32.56],[130.06,31.97],[130.58,30.91]]],[[[132.57,32.64],[133.52,33.39],[134,33.15],[134.54,34.01],[132.78,33.91],[132.12,33.35],[132.57,32.64]]],[[[136.62,34.76],[138.15,34.53],[140,35.5],[139.83,34.84],[140.83,35.68],[140.87,37.92],[141.5,38.42],[142,39.67],[141.44,41.27],[139.92,40.57],[140.03,39.48],[139.2,37.92],[137.05,36.67],[137.31,37.43],[135.36,35.32],[135.16,35.65],[132.66,35.38],[130.78,33.97],[131.99,33.8],[134.43,34.63],[135.32,34.47],[135.06,33.69],[135.76,33.34],[136.9,34.26],[136.62,34.76]]]]},"properties":{"NAME":null,"SUBJECTO":null,"PARTOF":null}},
{"type":"Feature","geometry":{"type":"Polygon","coordinates":[[[-90,13.75],[-87.69,13.02],[-85.62,10.83],[-85.78,10.14],[-85.09,9.58],[-83.61,9.15],[-82.96,8.05],[-82.38,8.32],[-81.12,7.94],[-80.66,7.25],[-79.98,7.49],[-80.4,8.06],[-79.07,9.03],[-78.51,8.69],[-78.55,8.75],[-78.21,9.35],[-79.5,9.64],[-80.96,8.86],[-82.23,9.05],[-83.91,11.25],[-83.66,13.71],[-83.31,14.77],[-84.65,15.93],[-87.57,15.91],[-88.24,14.84],[-90,13.75]]]},"properties":{"NAME":null,"SUBJECTO":null,"PARTOF":null}},
{"type":"Feature","geometry":{"type":"Polygon","coordinates":[[[7.91,36.78],[6.32,37.09],[5.14,36.67],[1.06,36.46],[-0.09,35.74],[-1.33,35.49],[-1.13,32.19],[8.63,34.03],[7.91,36.78]]]},"properties":{"NAME":"Numidia","SUBJECTO":"Numidia","PARTOF":"Numidia"}},
{"type":"Feature","geometry":{"type":"Polygon","coordinates":[[[41.68,41.79],[40.36,40.96],[38.65,40.92],[36.38,41.24],[35.96,41.69],[33.56,41.98],[30.74,41.04],[29.16,41.22],[28.48,40.4],[30,39.53],[31.61,39.39],[32.01,38.19],[32.95,37.38],[37.01,37.49],[39.27,38.22],[41.4,38.45],[43.39,39.35],[44,37.62],[44.69,36.67],[46.2,36.39],[47.92,36.6],[50.94,36.19],[51.42,36.46],[48.84,37.51],[48.82,38.31],[49.67,40.24],[48.96,40.32],[47.01,41.39],[44.79,41.75],[41.68,41.79]]]},"properties":{"NAME":"minor states","SUBJECTO":"minor states","PARTOF":"minor states"}},
{"type":"Feature","geometry":{"type":"Polygon","coordinates":[[[61.16,37.7],[58.21,39],[56.84,39.14],[56.02,38.04],[53.99,37.52],[54.07,36.94],[54.92,31.59],[55.47,31.18],[57.6,30.97],[60.62,31.32],[61.3,32.83],[60.96,34.61],[60.34,35.98],[61.16,37.7]]]},"properties":{"NAME":"Parthia","SUBJECTO":"Parthia","PARTOF":"Parthia"}},
{"type":"Feature","geometry":{"type":"Polygon","coordinates":[[[37.22,25.17],[39.15,26.25],[36.81,30.32],[35.77,31.64],[35.09,30.42],[32.81,29.48],[33.33,28.55],[34.32,27.83],[34.76,29.25],[34.76,28.1],[35.44,27.73],[37.22,25.17]]]},"properties":{"NAME":"Nabatean Kingdom","SUBJECTO":"Nabatean Kingdom","PARTOF":"Nabatean Kingdom"}},
{"type":"Feature","geometry":{"type":"Polygon","coordinates":[[[42.21,17.51],[43.79,18.66],[42.34,20.72],[39.15,26.25],[37.22,25.17],[37.2,24.66],[38.33,23.83],[39.1,22.4],[39.17,21.22],[40.69,19.87],[41.63,18.05],[42.21,17.51]]]},"properties":{"NAME":"Maan","SUBJECTO":"Maan","PARTOF":"Maan"}},
{"type":"Feature","geometry":{"type":"Polygon","coordinates":[[[43.05,14.61],[44.69,15.53],[45.43,17.77],[43.79,18.66],[42.21,17.51],[42.76,16.65],[43.05,14.61]]]},"properties":{"NAME":"Saba","SUBJECTO":"Saba","PARTOF":"Saba"}},
{"type":"Feature","geometry":{"type":"Polygon","coordinates":[[[49.71,14.77],[49,17.61],[47.7,17.43],[45.43,17.77],[44.69,15.53],[43.05,14.61],[43.3,13.24],[43.84,12.66],[44.96,12.83],[45.83,13.41],[46.6,13.4],[48.96,14.22],[49.71,14.77]]]},"properties":{"NAME":"Qataban","SUBJECTO":"Qataban","PARTOF":"Qataban"}},
{"type":"Feature","geometry":{"type":"Polygon","coordinates":[[[47.61,29.27],[41.95,32.21],[41.06,32.89],[37.21,32.69],[35.77,31.64],[36.81,30.32],[39.15,26.25],[42.34,20.72],[43.79,18.66],[45.43,17.77],[47.7,17.43],[49,17.61],[53.62,18.14],[55.29,17.68],[56.26,17.98],[56.74,18.69],[57.84,19.03],[57.81,20.17],[58.51,20.42],[59.84,22.28],[58.63,23.46],[57.15,23.98],[56.41,24.82],[56.37,26.24],[54.35,24.15],[53.69,23.99],[51.29,24.28],[51.59,25.61],[51.07,25.95],[50.97,24.44],[49.94,25.96],[50.12,26.74],[48.86,27.52],[48.13,29.27],[47.61,29.27]]]},"properties":{"NAME":null,"SUBJECTO":null,"PARTOF":null}},
{"type":"Feature","geometry":{"type":"Polygon","coordinates":[[[49.71,14.77],[52.14,15.69],[52.89,16.61],[54.91,16.97],[55.29,17.68],[53.62,18.14],[49,17.61],[49.71,14.77]]]},"properties":{"NAME":"Hadramaut","SUBJECTO":"Hadramaut","PARTOF":"Hadramaut"}},
{"type":"Feature","geometry":{"type":"Polygon","coordinates":[[[74.42,14.38],[75.21,12.1],[76.08,10.55],[76.7,8.71],[77.34,8.05],[78.31,9],[79.16,9.28],[79.22,10.19],[79.79,10.25],[79.92,12.11],[77.91,11.96],[76.88,11.35],[75.64,13.54],[74.42,14.38]]]},"properties":{"NAME":"Hindu kingdoms","SUBJECTO":"Hindu kingdoms","PARTOF":"Hindu kingdoms"}},
{"type":"Feature","geometry":{"type":"Polygon","coordinates":[[[72.68,22.03],[73.11,20.83],[72.76,20.06],[73.06,18.03],[73.84,15.39],[74.42,14.38],[75.64,13.54],[76.88,11.35],[77.91,11.96],[79.92,12.11],[80.31,13.1],[80.09,15.18],[81.37,16.35],[84.26,18.46],[85.11,19.44],[86.12,19.81],[86.93,20.69],[86.8,21.14],[88.05,21.94],[88.38,21.58],[90,21.93],[90,22.56],[91.57,22.54],[93.42,25.02],[93.77,26.5],[93.07,26.85],[89.76,25.98],[87.93,26.06],[86.18,26.41],[83.24,27.39],[80.66,28.45],[79.83,26.69],[72.68,22.03]],[[83.52,23.63],[85.14,23.01],[86.49,21.85],[86.49,21.43],[84.98,20.68],[81.34,17.18],[80.24,17.39],[79.49,18.21],[79.84,19.17],[81.82,21.09],[81.73,22.6],[82.18,23.36],[83.52,23.63]]]},"properties":{"NAME":"Mauryan Empire","SUBJECTO":"Mauryan Empire","PARTOF":"Mauryan Empire"}},
{"type":"Feature","geometry":{"type":"Polygon","coordinates":[[[83.52,23.63],[82.18,23.36],[81.73,22.6],[81.82,21.09],[79.84,19.17],[79.49,18.21],[80.24,17.39],[81.34,17.18],[84.98,20.68],[86.49,21.43],[86.49,21.85],[85.14,23.01],[83.52,23.63]]]},"properties":{"NAME":null,"SUBJECTO":null,"PARTOF":null}},
{"type":"Feature","geometry":{"type":"Polygon","coordinates":[[[113.5,22.74],[113.72,22.48],[115.71,22.64],[117.85,24.05],[119.43,25.65],[118.4,26.58],[116.54,27.75],[116.06,27.68],[114.9,25.9],[113.58,22.93],[113.5,22.74]]]},"properties":{"NAME":"Min-Yue","SUBJECTO":"Min-Yue","PARTOF":"Min-Yue"}},
{"type":"Feature","geometry":{"type":"MultiPolygon","coordinates":[[[[109.43,18.1],[110.26,18.63],[110.89,19.71],[109.55,19.91],[108.58,19.19],[108.65,18.48],[109.43,18.1]]],[[[113.58,22.93],[111.26,22.84],[106.87,22.67],[104.95,22.05],[104.74,20.54],[105.84,19.7],[106.81,20.91],[108.39,21.53],[109.78,21.48],[109.93,20.24],[110.57,21.23],[112.75,21.76],[113.5,22.74],[113.58,22.93]]]]},"properties":{"NAME":"Nan-Yue","SUBJECTO":"Nan-Yue","PARTOF":"Nan-Yue"}},
{"type":"Feature","geometry":{"type":"Polygon","coordinates":[[[106.04,37.56],[104.4,37.22],[104.74,36.6],[103.62,34.04],[101.65,29.53],[101.58,28.71],[102.13,28.02],[105.08,28.02],[108.17,27.54],[109.61,26.58],[110.85,24.87],[111.26,22.84],[113.58,22.93],[114.9,25.9],[116.06,27.68],[116.54,27.75],[118.4,26.58],[119.43,25.65],[119.43,26.59],[120.35,27.18],[121.36,28.39],[121.77,29.83],[119.94,30.12],[121.57,30.71],[121.61,31.83],[120.66,32.54],[119.97,34.14],[119.02,34.69],[120.14,36.19],[122.26,36.73],[122.39,37.3],[120.66,37.74],[118.95,37.08],[118.88,37.95],[117.59,38.28],[117.75,39.2],[118.98,39.22],[119.39,39.84],[121.01,40.85],[122.11,40.35],[121.24,39.55],[121.07,38.75],[124.1,39.88],[123.75,41.68],[122.5,41.81],[118.55,41.43],[114.54,41.56],[113.32,41.6],[111.5,41.82],[109.08,42.12],[107.21,41.75],[106.8,39.14],[106.04,37.56]]]},"properties":{"NAME":"Han Empire","SUBJECTO":"Han Empire","PARTOF":"Han Empire"}},
{"type":"Feature","geometry":{"type":"MultiPolygon","coordinates":[[[[99.86,2.9],[98.15,4.07],[97.38,5.18],[95.19,5.41],[95.56,4.53],[96.72,3.7],[97.6,2.25],[98.6,1.71],[99.11,0.22],[99.7,-0.15],[100.65,-1.63],[100.81,-2.34],[102.46,-4.18],[104.57,-6.07],[104.56,-5.6],[105.64,-5.93],[105.94,-3.21],[104.3,-1.36],[103.24,-0.66],[103.72,0.02],[102.47,0.62],[101.06,2.08],[100.46,2.12],[99.86,2.9]]],[[[110.97,1.23],[109.28,1.88],[108.81,0.81],[109.18,-0.87],[109.94,-1.64],[110.1,-3.08],[111.59,-2.8],[111.74,-3.65],[112.8,-2.97],[113.61,-3.61],[114.1,-3.35],[114.58,-4.3],[115.57,-3.8],[116.35,-2.42],[116.05,-1.93],[117.05,-0.93],[117.86,0.87],[118.77,0.82],[117.7,1.9],[117.83,2.31],[117.07,3.51],[118.39,4.37],[118.11,4.94],[119.04,5.17],[117.37,5.79],[117.51,6.39],[116.6,6.9],[115.36,4.88],[114.75,4.98],[112.76,3.01],[111.37,2.6],[110.97,1.23]]],[[[112.68,-7.72],[112.27,-7.03],[110.81,-6.53],[110.03,-7.04],[108.56,-6.92],[107.77,-6.45],[105.93,-6.03],[105.63,-6.76],[106.32,-7.43],[108.16,-7.86],[109.04,-7.72],[110.78,-8.32],[113.07,-8.35],[114.33,-8.78],[113.95,-7.82],[112.68,-7.72]]],[[[117.94,-8.54],[116.96,-8.53],[116.66,-9.06],[118.97,-8.88],[117.94,-8.54]]],[[[106.55,-3.18],[106.64,-2.71],[105.86,-1.63],[105.2,-2.11],[106.55,-3.18]]]]},"properties":{"NAME":null,"SUBJECTO":null,"PARTOF":null}},
{"type":"Feature","geometry":{"type":"MultiPolygon","coordinates":[[[[37.77,44.74],[39.25,45.96],[40.32,48.24],[39.78,48.78],[37.77,48.64],[35.21,46.64],[39.16,47.27],[37.76,46.6],[38.46,46.08],[36.96,45.23],[37.77,44.74]]],[[[35.03,45.53],[33.56,44.94],[34.01,44.49],[36.52,45.39],[35.03,45.53]]]]},"properties":{"NAME":"Bosporan Kingdom","SUBJECTO":"Bosporan Kingdom","PARTOF":"Bosporan Kingdom"}},
{"type":"Feature","geometry":{"type":"Polygon","coordinates":[[[5.04,43.33],[5.83,43.02],[6.84,43.38],[5.04,43.33]]]},"properties":{"NAME":null,"SUBJECTO":null,"PARTOF":null}},
{"type":"Feature","geometry":{"type":"Polygon","coordinates":[[[-1.33,35.49],[-2.04,35.05],[-4.59,35.15],[-5.93,35.73],[-7,33.87],[-9.22,32.58],[-9.81,31.29],[-9.63,30.41],[-4.18,31.62],[-1.13,32.19],[-1.33,35.49]]]},"properties":{"NAME":"Mauretania","SUBJECTO":"Mauretania","PARTOF":"Mauretania"}},
{"type":"Feature","geometry":{"type":"MultiPolygon","coordinates":[[[[35.77,31.64],[36.39,33.58],[35.82,34.34],[34.5,31.62],[33.56,30.97],[32.08,31.01],[31,31.47],[29.25,30.75],[23.15,32.14],[21.67,32.82],[20.37,32.3],[20.12,30.96],[22.09,31.75],[25.44,30.68],[25.45,28.98],[28.41,27.74],[31.21,24.25],[31.06,22.68],[32.61,22.82],[33.35,23.35],[33.69,23.55],[33.66,24.02],[35.19,24.4],[33.93,26.56],[32.32,29.54],[32.81,29.48],[35.09,30.42],[35.77,31.64]]],[[[33.92,34.95],[34.46,35.64],[32.14,35.04],[32.6,34.61],[33.92,34.95]]],[[[24.69,35.09],[26.16,35.02],[23.53,35.57],[24.69,35.09]]]]},"properties":{"NAME":"Ptolemaic Kingdom","SUBJECTO":"Ptolemaic Kingdom","PARTOF":"Ptolemaic Kingdom"}},
{"type":"Feature","geometry":{"type":"Polygon","coordinates":[[[-14.51,28.05],[-13.88,28.2],[-13.78,28.88],[-14.51,28.05]]]},"properties":{"NAME":"Guanches","SUBJECTO":"Guanches","PARTOF":"Guanches"}},
{"type":"Feature","geometry":{"type":"Polygon","coordinates":[[[-68.2,12.22],[-68.36,12.31],[-68.24,12.02],[-68.2,12.22]]]},"properties":{"NAME":null,"SUBJECTO":null,"PARTOF":null}},
{"type":"Feature","geometry":{"type":"Polygon","coordinates":[[[-61.67,17.08],[-61.79,17.16],[-61.89,17.03],[-61.67,17.08]]]},"properties":{"NAME":null,"SUBJECTO":null,"PARTOF":null}},
{"type":"Feature","geometry":{"type":"Polygon","coordinates":[[[-68.97,12.2],[-68.83,12.05],[-68.82,12.16],[-68.97,12.2]]]},"properties":{"NAME":null,"SUBJECTO":null,"PARTOF":null}},
{"type":"Feature","geometry":{"type":"Polygon","coordinates":[[[-61.6,12.19],[-61.79,12.01],[-61.64,12.03],[-61.6,12.19]]]},"properties":{"NAME":null,"SUBJECTO":null,"PARTOF":null}},
{"type":"Feature","geometry":{"type":"Polygon","coordinates":[[[-62.17,16.67],[-62.18,16.81],[-62.24,16.71],[-62.17,16.67]]]},"properties":{"NAME":null,"SUBJECTO":null,"PARTOF":null}},
{"type":"Feature","geometry":{"type":"Polygon","coordinates":[[[-62.54,17.18],[-62.61,17.19],[-62.61,17.1],[-62.54,17.18]]]},"properties":{"NAME":null,"SUBJECTO":null,"PARTOF":null}},
{"type":"Feature","geometry":{"type":"Polygon","coordinates":[[[-62.69,17.28],[-62.73,17.37],[-62.86,17.37],[-62.69,17.28]]]},"properties":{"NAME":null,"SUBJECTO":null,"PARTOF":null}},
{"type":"Feature","geometry":{"type":"Polygon","coordinates":[[[-61.09,16.3],[-60.99,16.34],[-61.02,16.35],[-61.09,16.3]]]},"properties":{"NAME":null,"SUBJECTO":null,"PARTOF":null}},
{"type":"Feature","geometry":{"type":"Polygon","coordinates":[[[-62.97,17.46],[-62.94,17.49],[-62.99,17.52],[-62.97,17.46]]]},"properties":{"NAME":null,"SUBJECTO":null,"PARTOF":null}},
{"type":"Feature","geometry":{"type":"MultiPolygon","coordinates":[[[[-7.43,55.06],[-8.35,55.1],[-8.59,54.2],[-9.89,54.33],[-10.16,53.37],[-9.31,53.12],[-10.22,51.76],[-9.82,51.43],[-6.41,52.21],[-6.44,53.9],[-5.66,54.32],[-6.02,55.09],[-7.43,55.06]]],[[[-0.2,53.52],[-1.72,55.45],[-3.29,55.97],[-1.94,57.4],[-4.15,57.55],[-3.17,58.52],[-5.35,58.09],[-6.04,56.47],[-4.71,56.13],[-5.11,54.79],[-3.15,54.84],[-2.91,53.27],[-3.96,53.21],[-5,51.7],[-4.28,51.19],[-5.78,50.13],[-3.52,50.62],[0.19,50.73],[1.36,51.35],[0.25,51.45],[1.51,52.03],[1.38,52.81],[0.01,52.79],[-0.2,53.52]]]]},"properties":{"NAME":"Celts","SUBJECTO":"Celts","PARTOF":"Celts"}},
{"type":"Feature","geometry":{"type":"Polygon","coordinates":[[[34.04,36.33],[35.89,36.77],[35.82,34.34],[36.39,33.58],[35.77,31.64],[37.21,32.69],[41.06,32.89],[41.95,32.21],[47.61,29.27],[47.91,29.89],[50.13,30.07],[51.35,28.04],[52.89,27.05],[54.65,26.39],[55.9,27.1],[56.79,26.97],[57.25,25.79],[58.74,25.54],[58.42,27.75],[60.34,27.89],[60.68,28.64],[60.2,29.81],[60.62,31.32],[57.6,30.97],[55.47,31.18],[54.92,31.59],[54.07,36.94],[53.8,36.68],[51.42,36.46],[50.94,36.19],[47.92,36.6],[46.2,36.39],[44.69,36.67],[44,37.62],[43.39,39.35],[41.4,38.45],[39.27,38.22],[37.01,37.49],[32.95,37.38],[31.37,36.71],[32.09,36.33],[34.04,36.33]]]},"properties":{"NAME":"Seleucid Kingdom","SUBJECTO":"Seleucid Kingdom","PARTOF":"Seleucid Kingdom"}},
{"type":"Feature","geometry":{"type":"Polygon","coordinates":[[[27.49,37.24],[28.63,36.65],[28.24,37.43],[27.49,37.24]]]},"properties":{"NAME":null,"SUBJECTO":null,"PARTOF":null}},
{"type":"Feature","geometry":{"type":"Polygon","coordinates":[[[28.63,36.65],[29.3,36.17],[30.47,36.19],[31.37,36.71],[32.95,37.38],[32.01,38.19],[31.61,39.39],[30,39.53],[28.48,40.4],[26.77,40.38],[26.14,39.44],[27.03,38.82],[26.39,38.1],[27.49,37.24],[28.24,37.43],[28.63,36.65]]]},"properties":{"NAME":"Roman Republic","SUBJECTO":"Roman Republic","PARTOF":"Roman Republic"}},
{"type":"Feature","geometry":{"type":"MultiPolygon","coordinates":[[[[7.07,43.54],[6.2,44.04],[4.69,44.05],[4.28,45.06],[2.12,42.4],[-1.36,42.21],[-1.73,41.81],[-8.83,41.87],[-8.69,40.99],[-9.52,38.69],[-8.85,38.5],[-8.99,36.99],[-7.23,37.23],[-5.66,36.01],[-4.45,36.72],[-2.24,36.73],[0.17,38.74],[-0.39,39.43],[0.88,41.02],[3.13,41.86],[3,42.77],[4.08,43.49],[5.04,43.33],[6.84,43.38],[7.07,43.54]]],[[[32.09,36.33],[33.17,35.97],[34.04,36.33],[32.09,36.33]]],[[[10.96,33.58],[10.02,34.08],[11.13,35.24],[10.27,36.75],[9.42,37.28],[7.91,36.78],[8.63,34.03],[9.83,32.92],[10.96,33.58]]],[[[24.31,37.99],[24.13,38.65],[23.12,38.87],[24.31,37.99]]],[[[7.3,43.67],[8.9,44.44],[9.91,44.11],[10.74,42.85],[12.64,41.53],[13.8,41.19],[14.9,40.24],[15.67,40.09],[16.21,38.78],[16.05,37.93],[17.09,38.92],[16.53,39.7],[16.95,40.48],[18.03,40.6],[14.92,41.97],[13.6,43.53],[12.7,43.93],[12.18,45.21],[13.67,45.71],[13.78,46.77],[10.97,46.9],[10.03,46.5],[7.35,46.5],[6.81,45.83],[7.3,43.67]]],[[[19.61,41.76],[19.37,40.26],[21.17,38.35],[21.78,36.82],[22.98,36.61],[22.98,37.96],[23.99,37.76],[23.8,38.35],[22.49,38.88],[23.24,39.2],[22.49,40.5],[23.6,39.93],[23.89,40.73],[25.02,41.02],[26.61,40.4],[27.93,40.96],[26.8,41.34],[26.74,41.36],[26.25,41.46],[23.04,41.8],[22.95,41.91],[19.61,41.76]]],[[[8.2,40.66],[8.37,39.31],[9.48,39.14],[9.79,40.56],[9.31,41.18],[8.2,40.66]]],[[[9.01,41.46],[9.43,42.79],[8.61,42.49],[9.01,41.46]]],[[[12.66,38.07],[12.45,37.77],[15.03,36.75],[15.39,38.21],[12.66,38.07]]]]},"properties":{"NAME":"Roman Republic","SUBJECTO":"Roman Republic","PARTOF":"Roman Republic"}},
{"type":"Feature","geometry":{"type":"Polygon","coordinates":[[[94.98,41.22],[106.04,37.56],[106.8,39.14],[107.21,41.75],[109.08,42.12],[113.32,41.6],[118.55,41.43],[122.5,41.81],[123.75,41.68],[125.88,41.48],[131.08,46.2],[124.2,50.33],[107.07,50.97],[100.71,51.09],[100.68,51.02],[100.25,50.74],[100.29,51.09],[95.82,51.18],[85.41,48.36],[94.98,41.22]]]},"properties":{"NAME":"Xiongnu","SUBJECTO":"Xiongnu","PARTOF":"Xiongnu"}},
{"type":"Feature","geometry":{"type":"Polygon","coordinates":[[[-70.87,47.05],[-69.51,48.46],[-67.32,49.43],[-66.37,50.31],[-61.64,50.28],[-60.14,50.41],[-58.52,51.38],[-56.96,51.49],[-55.66,52.19],[-56.13,53.47],[-58.79,52.57],[-60.17,53.3],[-60.22,53.32],[-62.89,54.73],[-65.64,55.26],[-71.03,55.2],[-74.2,52.93],[-78.74,52.74],[-78.82,51.16],[-79.34,50.84],[-81.75,52.17],[-82.34,52.98],[-82.2,54.97],[-84.47,55.17],[-87.47,55.91],[-88.77,56.74],[-90.44,57.14],[-92.4,56.98],[-93.82,56.86],[-102.14,57.21],[-111.28,58.55],[-114.57,60.6],[-118.2,62.71],[-124.94,64.83],[-132.43,62.5],[-139.52,62.42],[-144.68,63.19],[-150.13,63.32],[-160.94,63.98],[-163.31,63.04],[-164.29,63.25],[-166.19,61.75],[-165.9,61.27],[-163.52,60.71],[-165.13,60.54],[-164.03,59.8],[-162.38,60.16],[-161.94,58.72],[-157.14,58.86],[-157.67,57.6],[-160.46,56.2],[-160.17,55.81],[-156.5,57.1],[-153.45,58.88],[-154.28,59.25],[-152.88,60.28],[-150.31,61.31],[-149.32,60.93],[-151.16,60.66],[-151.39,59.21],[-149.33,60.03],[-147.94,61.21],[-145,60.55],[-144.41,60.09],[-140.13,59.77],[-137.09,58.45],[-136.15,58.9],[-133.47,57.84],[-133.4,57.22],[-131.19,56.03],[-130.77,55.07],[-129.85,55],[-128.59,55.06],[-125.7,55.19],[-115.03,52.03],[-114.47,52],[-105.19,51.45],[-98.92,50.23],[-97.2,50.11],[-97.15,50.41],[-98.72,52.23],[-101.21,53.27],[-101.05,54.62],[-97.09,55.07],[-95.27,53.86],[-95.24,53.16],[-96.2,52.38],[-95.27,51.12],[-93.99,50.64],[-91.15,50.64],[-90.71,50.27],[-91.08,49.95],[-87.79,49.93],[-85.04,49.09],[-81.93,48.9],[-76.06,47.31],[-74.19,47.97],[-70.87,47.05]]]},"properties":{"NAME":"Subarctic forest hunter-gatherers","SUBJECTO":"Subarctic forest hunter-gatherers","PARTOF":"Subarctic forest hunter-gatherers"}},
{"type":"Feature","geometry":{"type":"Polygon","coordinates":[[[142.34,-10.92],[141.68,-12.47],[141.71,-15.23],[140.8,-17.56],[139.25,-17.43],[135.39,-14.9],[135.83,-13.48],[136.86,-12.44],[134.94,-12.34],[133.56,-11.95],[132.38,-11.3],[132.75,-12.17],[131.18,-12.24],[130.46,-12.76],[129.43,-14.31],[129.63,-15.28],[127.96,-14.7],[126.85,-13.78],[125.86,-14.69],[125.16,-14.8],[125.02,-15.64],[123.58,-16.39],[123.89,-16.91],[123.42,-17.58],[122.74,-16.58],[122.09,-17.4],[122.2,-18.24],[120.87,-19.68],[118.87,-20.07],[117.6,-20.76],[116.42,-20.84],[113.63,-22.57],[113.76,-23.48],[113.43,-24.87],[114.18,-26.02],[114.1,-26.54],[113.16,-26.43],[114.63,-28.9],[115.06,-30.8],[115.75,-32.21],[115.65,-33.37],[115.05,-34.42],[116.56,-35.19],[118.21,-35.09],[119.77,-34.12],[123.62,-33.92],[124.25,-33.14],[126.06,-32.43],[127.27,-32.38],[129.19,-31.8],[131.28,-31.63],[131.99,-32.07],[133.84,-32.34],[134.63,-33.27],[135.71,-35.21],[137.07,-33.95],[137.87,-32.75],[138.17,-33.19],[136.95,-35.47],[137.68,-35.33],[138.1,-34.36],[138.57,-34.93],[138.35,-35.87],[139.37,-35.61],[140.01,-37.64],[140.65,-38.16],[143.36,-38.97],[144.75,-38.46],[146.53,-39.18],[148.04,-38.1],[149.5,-37.93],[149.98,-37.35],[150.22,-35.69],[150.76,-35.25],[151.36,-33.52],[152.18,-32.88],[152.97,-31.42],[153.49,-28.84],[152.95,-27.34],[152.9,-25.63],[151.73,-24.16],[150.8,-23.6],[150.75,-22.81],[149.56,-22.43],[149.1,-21.06],[148.19,-20.17],[146.32,-19.08],[145.87,-17.19],[145.33,-16.49],[145.18,-15.05],[144.39,-14.37],[143.74,-14.47],[143.17,-12.12],[142.34,-10.92]]]},"properties":{"NAME":"Australian aboriginal hunter-gatherers","SUBJECTO":"Australian aboriginal hunter-gatherers","PARTOF":"Australian aboriginal hunter-gatherers"}},
{"type":"Feature","geometry":{"type":"Polygon","coordinates":[[[146.71,-43.72],[147.82,-42.97],[148.27,-41.09],[146.38,-41.31],[144.78,-40.84],[145.18,-42.48],[146.71,-43.72]]]},"properties":{"NAME":"Tasmanian hunter-gatherers","SUBJECTO":"Tasmanian hunter-gatherers","PARTOF":"Tasmanian hunter-gatherers"}},
{"type":"Feature","geometry":{"type":"MultiPolygon","coordinates":[[[[143.06,53.06],[141.77,53.27],[141.64,51.81],[142.15,50.89],[141.74,48.81],[142.04,47.96],[141.62,46.56],[143.44,46.57],[142.49,47.9],[142.85,49.13],[144.54,48.75],[142.94,51.62],[143.06,53.06]]],[[[140.01,41.38],[141.16,41.75],[140.25,42.23],[141.93,42.5],[143.21,41.93],[143.85,42.77],[145.45,43.17],[145.06,43.79],[143.51,44.16],[141.88,45.44],[141.3,43.19],[140.6,43.33],[139.71,42.48],[140.01,41.38]]]]},"properties":{"NAME":"Ainu","SUBJECTO":"Ainu","PARTOF":"Ainu"}},
{"type":"Feature","geometry":{"type":"Polygon","coordinates":[[[105.4,72.75],[98.46,69.79],[75.86,61.43],[62.81,56.96],[59.09,56.43],[65.31,55.05],[78.36,56.41],[93.7,56.48],[99.54,55.28],[99.49,55.66],[107.96,59.82],[114.02,59.55],[116.71,54.66],[119.94,51.26],[127.34,49.98],[134.87,52.01],[141.05,52.69],[139.38,54.08],[137.98,53.46],[136.35,53.7],[136.49,54.46],[134.99,54.85],[137.23,55.98],[142.85,59.27],[147.92,59.26],[151.14,59.44],[152.19,58.93],[154.91,59.1],[153.94,59.57],[157.1,61.63],[160.15,61.66],[160.64,60.72],[164.14,62.53],[163.33,60.69],[158.33,58.03],[156.78,57.58],[155.63,56.27],[155.47,54.92],[156.7,50.96],[157.9,51.67],[158.46,52.83],[159.9,53.24],[159.93,54.09],[162.01,54.74],[161.5,55.29],[163.1,56.56],[163.13,57.55],[161.8,58.1],[163.39,59.81],[164.58,59.66],[165.78,60.35],[170.34,60.28],[169.48,61.19],[172.44,63.08],[171.77,65.86],[168.14,67.46],[155.89,68.17],[130.87,69.9],[124.54,71.59],[123.5,73.5],[123.41,73.48],[122.88,72.75],[118.5,73.04],[118.46,73.52],[111.76,73.66],[105.6,72.74],[105.4,72.75]]]},"properties":{"NAME":"Paleo-Siberian hunter-gatherers","SUBJECTO":"Paleo-Siberian hunter-gatherers","PARTOF":"Paleo-Siberian hunter-gatherers"}},
{"type":"Feature","geometry":{"type":"Polygon","coordinates":[[[25.2,65.27],[34.73,65.78],[34.73,65.8],[32.22,66.99],[35.77,66.26],[39.19,66.04],[41.26,66.94],[40.83,67.66],[37.25,68.79],[29.73,69.7],[30.46,70.54],[28.21,71.02],[22.31,70.22],[19.58,69.18],[18.32,69.36],[15.38,67.46],[13.75,66.92],[11.41,64.62],[10.16,64.1],[11.53,61.9],[15.43,61.87],[16.57,62.52],[17.94,62.55],[21.39,64.38],[21.28,65.21],[22.65,65.93],[25.25,65.42],[25.2,65.27]]]},"properties":{"NAME":"Saami","SUBJECTO":"Saami","PARTOF":"Saami"}},
{"type":"Feature","geometry":{"type":"Polygon","coordinates":[[[25.2,65.27],[25.19,65.24],[21.2,62.44],[29.02,61.77],[32.52,60.93],[46.11,57.71],[53.98,57.71],[59.09,56.43],[62.81,56.96],[75.86,61.43],[98.46,69.79],[105.4,72.75],[105.28,72.75],[113.63,75.27],[111.43,76.57],[106.4,76.43],[105.06,77.57],[101.17,77.01],[98.72,76.07],[94.69,76.18],[91.63,75.65],[89.8,75.52],[86.96,74.78],[87.69,73.9],[80.84,73.55],[80.98,72.45],[83.56,71.62],[83.04,70.24],[81.67,71.57],[79.22,72.27],[77.79,71.78],[78.61,70.85],[75.67,71.2],[75.62,72.63],[73.22,71.46],[74.25,70.57],[73.91,69.15],[77.41,68.94],[76.95,67.65],[76.33,68.78],[74.5,68.59],[74.74,67.69],[72.21,66.17],[70.84,66.55],[73.39,68.38],[72.53,69.07],[72.68,70.82],[71.8,71.43],[72.71,72.77],[69.34,72.83],[68.32,71.63],[66.82,71.11],[66.88,69.62],[69.11,68.83],[68.22,68.2],[66.58,68.89],[62.28,69.71],[59.76,68.3],[58.77,68.86],[53.63,68.05],[53.89,68.79],[48.08,67.56],[46.4,66.72],[44.87,67.31],[46.63,67.7],[45.86,68.38],[44.01,68.49],[44.03,66.01],[42.21,66.41],[39.95,65.58],[40.32,64.46],[36.88,65.07],[37.94,63.85],[35.08,64.29],[34.73,65.61],[34.73,65.78],[25.2,65.27]]]},"properties":{"NAME":"Finno-Ugric taiga hunter-gatherers","SUBJECTO":"Finno-Ugric taiga hunter-gatherers","PARTOF":"Finno-Ugric taiga hunter-gatherers"}},
{"type":"Feature","geometry":{"type":"MultiPolygon","coordinates":[[[[-75.62,69.1],[-73.18,68.3],[-72.3,67.26],[-74.28,66.06],[-73.42,65.53],[-77.36,65.38],[-78.1,64.51],[-76.53,64.23],[-74.56,64.78],[-73.16,64.57],[-71.32,63.06],[-69.16,62.42],[-65.94,61.79],[-68.48,63.34],[-67.77,63.8],[-64.77,62.48],[-65.04,64.41],[-66.6,64.77],[-68.38,66.28],[-66.91,66.59],[-63.35,65.02],[-63.38,65.93],[-61.21,66.64],[-64.83,67.95],[-66.74,67.93],[-68.67,68.72],[-66.67,69.19],[-68.47,70.56],[-70.29,70.62],[-72.53,71.63],[-73.28,71.16],[-75.32,72.55],[-78.36,72.58],[-78.57,71.93],[-81.04,72.38],[-80.49,73.04],[-82.7,73.78],[-84.86,73.35],[-86.33,71.99],[-86.66,73.1],[-85.25,73.78],[-89.1,73.2],[-90,71.54],[-87.95,70.38],[-80.83,69.71],[-78.71,70.01],[-79.1,70.66],[-75.62,69.1]]],[[[-76.86,67.26],[-75.15,67.58],[-75.88,68.34],[-76.86,67.26]]],[[[-98.25,69.69],[-99.37,68.97],[-96.21,68.54],[-95.51,68.81],[-98.25,69.69]]],[[[-81.91,64.52],[-85.56,65.86],[-86.06,64.14],[-85.46,63.21],[-81.91,64.52]]],[[[-60.22,53.32],[-60.14,53.68],[-57.43,54.58],[-59.69,55.15],[-62.33,56.77],[-61.48,57.1],[-64.67,60.18],[-65.93,58.42],[-68,58.17],[-69.34,59.21],[-70.03,60.88],[-73.39,62.35],[-75.69,62.22],[-77.36,62.52],[-78.18,60.74],[-77.21,59.75],[-78.47,58.71],[-76.77,57.66],[-76.44,56.81],[-77.23,55.61],[-79.55,54.69],[-78.74,52.74],[-74.2,52.93],[-71.03,55.2],[-65.64,55.26],[-62.89,54.73],[-60.22,53.32]]],[[[-95.06,72.28],[-92,72.84],[-90.45,73.9],[-95.07,74.06],[-95.06,72.28]]],[[[-125.83,72.08],[-123.47,71.2],[-120.84,71.53],[-120.45,72.3],[-117.69,73.22],[-121.65,73.99],[-124.74,74.24],[-124.06,73.87],[-125.14,72.61],[-125.83,72.08]]],[[[-100.97,69.63],[-101.06,70.03],[-105.6,71.04],[-110.35,71.2],[-114.04,72.06],[-116.93,72.9],[-118.65,71.8],[-115.52,71.42],[-117.76,70.72],[-113.76,70.74],[-111.54,70.33],[-117.19,70.12],[-116.99,69.74],[-113.54,69.11],[-113.15,68.6],[-110.45,68.65],[-106.85,69.45],[-104.19,68.9],[-101.81,69.14],[-103.27,69.33],[-100.97,69.63]]],[[[-43.58,59.94],[-42.78,60.53],[-42.27,62.19],[-40.52,63.78],[-41.48,64.27],[-39.69,65.19],[-42.79,65.4],[-43.85,64.21],[-44.26,61.87],[-43.58,59.94]]],[[[-50.94,67.53],[-52.81,67.77],[-53.1,65.87],[-51.8,64.23],[-50.14,64.74],[-51.37,63.73],[-49.86,62.97],[-50.05,62.31],[-47.63,60.6],[-46.16,60.94],[-46.13,61.76],[-47.66,62.79],[-49.06,64.79],[-49.47,67.03],[-50.54,67.49],[-50.94,67.53]]],[[[-160.94,63.98],[-150.13,63.32],[-144.68,63.19],[-139.52,62.42],[-132.43,62.5],[-124.94,64.83],[-118.2,62.71],[-114.57,60.6],[-111.28,58.55],[-102.14,57.21],[-93.82,56.86],[-92.4,56.98],[-93.07,58.55],[-94.68,58.88],[-94.75,59.95],[-93.42,61.86],[-90.77,63.3],[-93.32,63.97],[-89.87,63.58],[-89.97,64.19],[-88.38,64.06],[-87.79,65.35],[-85.99,66.16],[-83.74,66.31],[-81.5,67.07],[-82.69,68.7],[-81.48,69.19],[-84.31,69.83],[-86.49,67.38],[-88.32,67.81],[-88.91,69.23],[-90.34,68.31],[-90.51,69.49],[-92.67,69.74],[-91.66,70.29],[-94.42,71.88],[-96.7,70.84],[-96.13,69.94],[-94.04,69.55],[-93.41,68.54],[-95.32,68.06],[-97.83,68.4],[-97.26,67.6],[-101.91,67.71],[-105.64,68.35],[-107.66,67.96],[-107.13,66.96],[-110.53,67.92],[-112.5,67.69],[-115.56,67.9],[-114.11,68.35],[-115.29,68.89],[-117.83,69.01],[-122.33,69.88],[-125.19,69.41],[-127.94,70.08],[-132.71,68.87],[-133.72,68.92],[-130.05,69.97],[-136.04,69.34],[-135.5,68.72],[-141.16,69.6],[-143.31,70.2],[-145.27,70.12],[-152.14,70.53],[-152.97,70.93],[-160.24,70.86],[-162.88,70],[-164.07,69.06],[-166.84,68.41],[-163.74,67.22],[-160.03,66.57],[-162.28,66.07],[-164.46,66.6],[-168.18,65.69],[-165.66,65.25],[-166.59,64.73],[-163.03,64.44],[-161.29,64.96],[-160.94,63.98]]],[[[-62.81,81.16],[-67.41,80.21],[-64.62,79.95],[-65.48,79.16],[-72.38,78.53],[-67.74,77.19],[-69.04,76.29],[-66.56,75.93],[-62.45,76.34],[-63.36,78.24],[-62.81,81.16]]],[[[-102.28,73.15],[-102.67,72.85],[-98.94,71.39],[-96.35,72.5],[-98.39,73.13],[-96.94,73.79],[-100.93,73.86],[-100.83,72.75],[-102.28,73.15]]],[[[-88.33,74.68],[-80.35,74.62],[-79.5,75.28],[-83.56,75.9],[-89.04,75.46],[-93.08,76.53],[-91.87,74.79],[-88.33,74.68]]],[[[-75.8,82.68],[-75.99,82.34],[-77.52,80.75],[-81.36,79.91],[-80.73,79.66],[-86.17,80.28],[-85.69,79.72],[-81.6,78.75],[-85.81,78.91],[-86.63,78.3],[-84.84,78.16],[-84.41,77.63],[-83.05,77.63],[-87.58,77.46],[-87.1,77.28],[-88.59,76.47],[-84.67,76.47],[-84.8,76.87],[-83.09,76.48],[-82.57,76.7],[-80.81,76.24],[-77.8,76.73],[-82.1,77.32],[-78.22,77.57],[-78.37,78.03],[-76.29,78.01],[-76.62,78.3],[-74.91,78.82],[-77.3,79.29],[-73.67,79.52],[-74.54,79.89],[-70.42,80.05],[-70.51,80.55],[-65.3,81.46],[-67.85,81.75],[-61.99,82.31],[-70.92,82.93],[-73.23,82.86],[-76.23,82.91],[-75.8,82.68]]],[[[-54.49,69.56],[-52.08,69.77],[-54.59,70.24],[-54.49,69.56]]],[[[-60.17,53.3],[-58.79,52.57],[-56.13,53.47],[-58.08,54.08],[-60.17,53.3]]],[[[123.5,73.5],[124.54,71.59],[130.87,69.9],[155.89,68.17],[168.14,67.46],[171.77,65.86],[172.44,63.08],[169.48,61.19],[170.34,60.28],[170.52,60.34],[172.49,61.26],[179.29,62.82],[178.15,64.16],[175.9,64.55],[177.13,64.93],[180,64.95],[180,65.05],[180,65.31],[180,65.38],[180,65.96],[180,66.96],[180,67.96],[180,68.92],[175.61,69.78],[170.45,70.02],[170.83,68.92],[169.39,68.72],[167.32,69.66],[164.05,69.66],[160.86,69.08],[158.41,70.81],[156.04,70.99],[152.13,70.66],[149.72,71.9],[141.29,72.79],[139.74,71.4],[137.63,71.08],[132.28,71.66],[131.05,70.69],[126.22,72.38],[128.52,72.95],[124.22,73.7],[123.5,73.5]]],[[[-170.47,66.29],[-171.96,66.96],[-174.34,67.08],[-180,68.92],[-180,67.96],[-180,66.96],[-180,65.96],[-180,65.38],[-180,65.31],[-180,65.26],[-176.14,65.46],[-175.95,65.01],[-173.08,64.38],[-172.56,65.51],[-170.47,66.29]]]]},"properties":{"NAME":"Arctic marine mammal hunters","SUBJECTO":"Arctic marine mammal hunters","PARTOF":"Arctic marine mammal hunters"}},
{"type":"Feature","geometry":{"type":"Polygon","coordinates":[[[-80.24,-3.48],[-76.45,-5.04],[-73.08,-4.72],[-74.23,-2.27],[-77.3,-0.89],[-80.87,-1.2],[-80.36,-2.73],[-79.81,-2.17],[-80.24,-3.48]]]},"properties":{"NAME":"Chorrera","SUBJECTO":"Chorrera","PARTOF":"Chorrera"}},
{"type":"Feature","geometry":{"type":"Polygon","coordinates":[[[-48.8,-28.48],[-48.56,-27.68],[-48.72,-25.43],[-46.21,-23.88],[-45.46,-23.86],[-44.56,-22.99],[-43.24,-23.03],[-43.28,-21.59],[-45.94,-21.75],[-49.49,-24.55],[-49.84,-26.8],[-48.8,-28.48]]]},"properties":{"NAME":"Shellfish gatherers","SUBJECTO":"Shellfish gatherers","PARTOF":"Shellfish gatherers"}},
{"type":"Feature","geometry":{"type":"Polygon","coordinates":[[[-64.19,-14.69],[-60.27,-13.81],[-51.54,-14.38],[-48.32,-13.92],[-39.94,-8.29],[-37.89,-4.39],[-38.79,-3.6],[-40.23,-2.85],[-42.32,-2.82],[-43.33,-2.43],[-44.55,-3.1],[-45.37,-3.17],[-49.07,-4.74],[-54.16,-4.63],[-56.33,-4.33],[-58.44,-2.29],[-57.97,-0.59],[-55.8,0.88],[-55.86,1.7],[-58.56,3.98],[-62.66,4.15],[-66.41,3.04],[-70.16,-5.74],[-69.05,-8.24],[-64.19,-14.69]]]},"properties":{"NAME":"Amazon hunter-gatherers","SUBJECTO":"Amazon hunter-gatherers","PARTOF":"Amazon hunter-gatherers"}},
{"type":"Feature","geometry":{"type":"Polygon","coordinates":[[[-65.91,-18.31],[-66.1,-20.14],[-67.12,-25.03],[-68.62,-26.67],[-69.32,-29.3],[-67.48,-31.66],[-63.56,-30.04],[-57.35,-29.68],[-54.36,-30.59],[-53.54,-31.45],[-52.14,-31.74],[-51.23,-30.27],[-50.47,-30.74],[-49.94,-29.63],[-48.8,-28.48],[-49.84,-26.8],[-49.49,-24.55],[-45.94,-21.75],[-43.28,-21.59],[-43.24,-23.03],[-41.96,-22.92],[-40.98,-22.09],[-40.93,-21.28],[-39.69,-19.41],[-39.67,-18.23],[-39.14,-17.77],[-38.95,-16],[-39.13,-14.32],[-38.8,-12.63],[-38.27,-12.89],[-37.19,-10.84],[-35.6,-9.63],[-34.89,-7.61],[-35.46,-5.27],[-37.18,-4.95],[-37.89,-4.39],[-39.94,-8.29],[-48.32,-13.92],[-51.54,-14.38],[-60.27,-13.81],[-64.19,-14.69],[-64.66,-16.8],[-65.91,-18.31]]]},"properties":{"NAME":"Savanna hunter-gatherers","SUBJECTO":"Savanna hunter-gatherers","PARTOF":"Savanna hunter-gatherers"}},
{"type":"Feature","geometry":{"type":"Polygon","coordinates":[[[-69.11,-51.35],[-69.04,-50.56],[-67.83,-49.97],[-67.58,-49.06],[-66.08,-48.14],[-65.78,-47.23],[-67.33,-46.53],[-67.47,-45.92],[-66.41,-45.02],[-65.44,-44.89],[-65.31,-43.6],[-63.6,-42.7],[-63.73,-42.1],[-64.99,-42.19],[-64.94,-40.83],[-63.84,-41.16],[-62.26,-40.8],[-62.31,-38.88],[-59.52,-38.87],[-57.81,-38.39],[-56.7,-36.94],[-57.42,-36],[-57.23,-35.44],[-58.52,-34.59],[-58.34,-34.22],[-56.34,-35],[-54.07,-34.65],[-52.35,-32.68],[-52.14,-31.74],[-53.54,-31.45],[-54.36,-30.59],[-57.35,-29.68],[-63.56,-30.04],[-67.48,-31.66],[-67.65,-33.58],[-69.44,-37.16],[-72.07,-40.55],[-70.58,-40.58],[-71.63,-43.2],[-72.19,-45.99],[-72.04,-48.77],[-71.17,-51.56],[-69.11,-51.35]]]},"properties":{"NAME":"Pampas cultures","SUBJECTO":"Pampas cultures","PARTOF":"Pampas cultures"}},
{"type":"Feature","geometry":{"type":"Polygon","coordinates":[[[-67.48,-31.66],[-69.32,-29.3],[-68.62,-26.67],[-67.12,-25.03],[-66.1,-20.14],[-65.91,-18.31],[-66.6,-19.15],[-68.22,-19.25],[-69.07,-20.07],[-70.15,-20.27],[-70.11,-21.75],[-70.4,-25.25],[-70.93,-27.73],[-71.43,-29.1],[-71.7,-30.85],[-71.42,-32.75],[-71.62,-33.71],[-72.63,-35.65],[-73.14,-37.16],[-73.67,-37.5],[-73.19,-39.57],[-73.91,-40.84],[-73.59,-41.7],[-72.73,-41.55],[-72.07,-40.55],[-69.44,-37.16],[-67.65,-33.58],[-67.48,-31.66]]]},"properties":{"NAME":"Andean hunter-gatherers","SUBJECTO":"Andean hunter-gatherers","PARTOF":"Andean hunter-gatherers"}},
{"type":"Feature","geometry":{"type":"MultiPolygon","coordinates":[[[[-69.21,-54.93],[-66.62,-55.07],[-66.42,-54.61],[-69.41,-52.57],[-70.33,-53.47],[-69.21,-54.93]]],[[[-73.95,-43.46],[-73.46,-42.26],[-74,-42.02],[-73.95,-43.46]]],[[[-69.11,-51.35],[-71.17,-51.56],[-72.04,-48.77],[-72.19,-45.99],[-71.63,-43.2],[-70.58,-40.58],[-72.07,-40.55],[-72.73,-41.55],[-72.53,-43.06],[-73.97,-46.71],[-74.56,-45.87],[-75.44,-46.52],[-73.98,-47.03],[-74.21,-48.01],[-74.27,-50.99],[-73.41,-52.02],[-71.15,-52.96],[-71.87,-53.7],[-71,-53.82],[-70.73,-52.8],[-69.24,-52.29],[-68.41,-52.41],[-69.11,-51.35]]]]},"properties":{"NAME":"Patagonian shellfish and marine mammal hunters","SUBJECTO":"Patagonian shellfish and marine mammal hunters","PARTOF":"Patagonian shellfish and marine mammal hunters"}},
{"type":"Feature","geometry":{"type":"MultiPolygon","coordinates":[[[[-48.64,-1.06],[-48.4,-0.39],[-50.5,-0.26],[-50.48,-1.68],[-49.35,-1.64],[-48.64,-1.06]]],[[[-61.7,8.61],[-60.79,9.39],[-62.38,10.01],[-62.7,10.76],[-64.07,10.63],[-64.88,10.14],[-66.48,10.68],[-67.98,10.54],[-68.69,11.38],[-69.75,11.53],[-71.55,10.95],[-71.18,9.28],[-70.68,8.56],[-65.97,8.18],[-63.07,8.33],[-61.7,8.61]]],[[[-66.45,18.05],[-65.95,18.47],[-67.06,18.55],[-66.45,18.05]]],[[[-77.1,20.53],[-77.66,19.9],[-75.52,19.91],[-74.17,20.19],[-75.6,21.01],[-77.34,21.51],[-79.76,22.76],[-81.43,23.14],[-82.96,23.03],[-84.26,22.54],[-84.21,21.83],[-82.85,22.64],[-79.73,21.67],[-78.73,21.62],[-78.45,20.97],[-77.1,20.53]]],[[[-70.77,18.49],[-68.37,18.58],[-70.88,19.93],[-72.77,19.53],[-72.75,18.51],[-71.4,17.7],[-70.77,18.49]]]]},"properties":{"NAME":"Caribbean hunter-gatherers","SUBJECTO":"Caribbean hunter-gatherers","PARTOF":"Caribbean hunter-gatherers"}},
{"type":"Feature","geometry":{"type":"Polygon","coordinates":[[[-69.86,-16.51],[-70.34,-17.14],[-69.83,-17.72],[-68.73,-17.68],[-68.8,-16.38],[-69.86,-16.51]]]},"properties":{"NAME":"Wankarani","SUBJECTO":"Wankarani","PARTOF":"Wankarani"}},
{"type":"Feature","geometry":{"type":"Polygon","coordinates":[[[-120.47,43.57],[-121.36,39.69],[-120.13,34.52],[-118.6,34.1],[-117.5,33.33],[-116.7,31.59],[-115.6,29.69],[-114.07,28.42],[-114.48,27.24],[-112.41,26.19],[-112.17,25.01],[-110.22,23.4],[-109.52,23.19],[-110.8,24.88],[-111.59,26.76],[-111.91,26.66],[-112.87,28.33],[-114.68,30.14],[-114.84,31.82],[-113.05,31.14],[-112.65,29.92],[-111.69,28.5],[-110.53,27.76],[-109.94,28.2],[-107.56,27.76],[-104.22,25.12],[-100.36,23.97],[-97.82,24.21],[-97.26,25.81],[-97.63,27.23],[-97.21,28.07],[-98.19,29.18],[-104.52,33.87],[-111.55,41.64],[-111.67,41.94],[-115.09,42.51],[-119.02,43.11],[-120.47,43.57]]]},"properties":{"NAME":"Desert hunter-gatherers","SUBJECTO":"Desert hunter-gatherers","PARTOF":"Desert hunter-gatherers"}},
{"type":"Feature","geometry":{"type":"Polygon","coordinates":[[[-128.59,55.06],[-124.76,52.45],[-120.48,48.96],[-120.31,44.3],[-120.47,43.57],[-119.02,43.11],[-115.09,42.51],[-111.67,41.94],[-114.13,47.95],[-114.47,52],[-115.03,52.03],[-125.7,55.19],[-128.59,55.06]]]},"properties":{"NAME":"Plateau fichers and hunter gatherers","SUBJECTO":"Plateau fichers and hunter gatherers","PARTOF":"Plateau fichers and hunter gatherers"}},
{"type":"Feature","geometry":{"type":"MultiPolygon","coordinates":[[[[-129.85,55],[-130,53.94],[-128.06,52.5],[-127.04,52.46],[-127.46,51.02],[-124.94,50.6],[-122.61,48.83],[-122.35,48.08],[-124.68,48.39],[-123.99,45.76],[-124.63,43.01],[-124.15,41.58],[-124.36,40.33],[-123.8,39.03],[-121.93,37.01],[-121.93,36.34],[-120.13,34.52],[-121.36,39.69],[-120.47,43.57],[-120.31,44.3],[-120.48,48.96],[-124.76,52.45],[-128.59,55.06],[-129.85,55]]],[[[-126.56,49.57],[-123.9,48.47],[-123.86,49.16],[-125.72,50.41],[-128.34,50.67],[-126.56,49.57]]]]},"properties":{"NAME":"North American Pacific foraging, hunting and fishing peoples","SUBJECTO":"North American Pacific foraging, hunting and fishing peoples","PARTOF":"North American Pacifi foraging, hunting and fishing peoples"}},
{"type":"Feature","geometry":{"type":"Polygon","coordinates":[[[32.88,12.47],[30.6,11.12],[24.07,11.18],[23.2,11.78],[20.44,11.97],[17.75,12.83],[8.27,12.37],[2.35,13.29],[-6.26,13.35],[-13.4,14.92],[-17.03,14.56],[-16.87,14.36],[-16.49,13.47],[-16.77,12.6],[-15.34,11.22],[-13.68,9.92],[-12.93,8.63],[-13.21,8.35],[-12.26,7.35],[-9.94,5.86],[-9.25,5.17],[-7.53,4.34],[-5,5.24],[-3.03,5.27],[-2.03,4.7],[1.56,6.24],[3.95,6.58],[5.45,5.48],[5.36,5.37],[12.6,7.73],[22.22,6.2],[33.93,2.84],[36.02,1.3],[38.77,-2.27],[39.48,-2.47],[40.45,-1.36],[40.86,0.32],[42.54,1.26],[44.14,1.15],[44.3,1.29],[46.36,2.67],[48.47,5.2],[49.05,6.42],[50.78,9.37],[51.25,11.66],[50.7,11.95],[49.3,11.25],[47.39,11.16],[46.68,10.7],[45.91,10.83],[44.28,10.4],[43.37,11.46],[42.56,11.57],[43.47,12.1],[40.74,14.92],[39.52,15.46],[39.24,16.25],[35.83,14.22],[35.72,13.22],[35.38,12.8],[32.88,12.47]],[[35.58,5.53],[33.02,6.86],[32.35,9.53],[34.23,11.71],[37.13,11.64],[39.14,9.06],[38.61,6.6],[35.58,5.53]]]},"properties":{"NAME":"West African cereal farmers","SUBJECTO":"West African cereal farmers","PARTOF":"West African cereal farmers"}},
{"type":"Feature","geometry":{"type":"Polygon","coordinates":[[[39.52,15.46],[38.69,18],[37.4,18.92],[37.13,21.23],[34.55,20.18],[35.23,18.51],[35.97,15.48],[35.83,14.22],[39.24,16.25],[39.52,15.46]]]},"properties":{"NAME":null,"SUBJECTO":null,"PARTOF":null}},
{"type":"Feature","geometry":{"type":"MultiPolygon","coordinates":[[[[45.28,-16.05],[44.45,-16.24],[43.97,-17.55],[44.59,-19.53],[44.47,-20.17],[43.5,-21.49],[43.29,-22.41],[43.83,-23.41],[44.04,-24.99],[45.21,-25.66],[46.86,-25.22],[47.26,-24.77],[48.09,-22.04],[49.34,-18.23],[49.42,-17.2],[50.5,-15.31],[49.82,-12.83],[49.18,-12.27],[48.86,-13.25],[46.46,-15.86],[45.28,-16.05]]],[[[44.14,1.15],[42.54,1.26],[40.86,0.32],[40.45,-1.36],[39.48,-2.47],[38.77,-2.27],[36.02,1.3],[33.93,2.84],[22.22,6.2],[12.6,7.73],[5.36,5.37],[5.35,5.36],[6.09,4.33],[8.14,4.47],[8.33,4.84],[9.65,4.02],[9.85,1.88],[9.37,1.17],[9.47,0.12],[8.82,-0.9],[9.66,-2.42],[11.77,-4.54],[12.37,-6.26],[13.39,-8.16],[13.2,-9.64],[13.64,-10.3],[13.81,-11.66],[12.59,-13.46],[12.06,-15.59],[11.78,-15.87],[11.77,-17.6],[14.42,-22.27],[14.84,-25.62],[15.45,-27.62],[16.79,-29.14],[18.18,-31.81],[18.29,-34.25],[19.88,-34.99],[20.26,-34.62],[22.68,-34.1],[24.43,-34.33],[26.66,-33.85],[28.92,-32.3],[30.39,-30.81],[31.56,-29.21],[32.23,-28.74],[32.9,-26.37],[32.5,-26.07],[33.35,-25.3],[35.43,-24.23],[35.51,-22.18],[35.26,-22.27],[34.73,-19.86],[37.28,-17.71],[39.47,-16.72],[40.39,-15.74],[40.62,-14.48],[40.31,-11.34],[40.62,-10.77],[39.66,-9.8],[39.27,-7.8],[39.57,-7.04],[38.92,-6.34],[39.27,-4.78],[40.92,-2.08],[41.61,-1.59],[43.72,0.8],[44.14,1.15]]]]},"properties":{"NAME":"Khoisan","SUBJECTO":"Khoisan","PARTOF":"Khoiasan"}},
{"type":"Feature","geometry":{"type":"Polygon","coordinates":[[[37.13,21.23],[36.66,22.17],[35.75,22.91],[35.47,23.72],[35.72,23.91],[35.19,24.4],[33.66,24.02],[33.69,23.55],[33.35,23.35],[34.53,20.17],[34.55,20.18],[37.13,21.23]]]},"properties":{"NAME":"Blemmyes","SUBJECTO":"Blemmyes","PARTOF":"Blemmyes"}},
{"type":"Feature","geometry":{"type":"Polygon","coordinates":[[[-97.21,28.07],[-96.72,28.71],[-95.6,28.8],[-94.12,29.69],[-94.12,31.64],[-95.47,31.69],[-96.04,32.99],[-95.46,33.03],[-96.26,34.62],[-95.64,35.16],[-94.28,35.13],[-94.12,35.88],[-94.12,36.33],[-94.9,36.25],[-95.79,37.17],[-95.36,39.95],[-94.12,40.14],[-94.23,46.72],[-94.51,47.39],[-95.62,47.72],[-96.93,48.55],[-97.28,49.57],[-97.2,50.11],[-98.92,50.23],[-105.19,51.45],[-114.47,52],[-114.13,47.95],[-111.67,41.94],[-111.55,41.64],[-104.52,33.87],[-98.19,29.18],[-97.21,28.07]]]},"properties":{"NAME":"Plain bison hunters","SUBJECTO":"Plain bison hunters","PARTOF":"Plain bison hunters"}},
{"type":"Feature","geometry":{"type":"Polygon","coordinates":[[[-110.53,27.76],[-110.38,27.21],[-109.13,26.29],[-109.26,25.65],[-108.01,24.98],[-105.54,22.28],[-105.29,20.67],[-105.69,20.4],[-104.95,19.44],[-103.49,18.35],[-101.99,18.03],[-101.22,17.42],[-98.86,16.6],[-97.88,16.05],[-96.33,15.75],[-95.13,16.3],[-93.59,15.74],[-93.14,16.98],[-92.94,18.59],[-93.09,18.55],[-93.78,18.35],[-94.24,18.24],[-96.01,18.93],[-97.5,21.19],[-97.88,22.33],[-97.82,24.21],[-100.36,23.97],[-104.22,25.12],[-107.56,27.76],[-109.94,28.2],[-110.53,27.76]],[[-99.02,16.82],[-99.18,17.29],[-99.21,17.71],[-97.06,18.06],[-96.19,17.88],[-95.43,17.43],[-95.5,16.53],[-96.44,16.22],[-97.69,16.39],[-99.02,16.82]],[[-100.75,19.59],[-101.01,20.28],[-100.49,20.9],[-99.11,20.59],[-98.48,19.8],[-98.62,19.21],[-99.14,18.92],[-99.91,19.03],[-100.75,19.59]]]},"properties":{"NAME":null,"SUBJECTO":null,"PARTOF":null}},
{"type":"Feature","geometry":{"type":"Polygon","coordinates":[[[-75.99,82.34],[-78.7,83],[-80.09,81.97],[-84.95,82.38],[-90.85,81.97],[-89.24,80.86],[-85.19,81.32],[-85.5,80.62],[-77.52,80.75],[-75.99,82.34]]]},"properties":{"NAME":null,"SUBJECTO":null,"PARTOF":null}},
{"type":"Feature","geometry":{"type":"Polygon","coordinates":[[[-105.6,71.04],[-104.47,71.65],[-105.31,72.65],[-108.18,73.38],[-107.53,72.02],[-108.99,72.73],[-111.73,72.33],[-114.65,73.35],[-116.93,72.9],[-114.04,72.06],[-110.35,71.2],[-105.6,71.04]]]},"properties":{"NAME":null,"SUBJECTO":null,"PARTOF":null}},
{"type":"Feature","geometry":{"type":"Polygon","coordinates":[[[-87.5,80.23],[-92.02,81.26],[-96.59,80.09],[-92.7,78.43],[-89.12,78.34],[-85.76,79.38],[-87.5,80.23]]]},"properties":{"NAME":null,"SUBJECTO":null,"PARTOF":null}},
{"type":"Feature","geometry":{"type":"Polygon","coordinates":[[[-125.83,72.08],[-123.47,71.2],[-120.84,71.53],[-120.45,72.3],[-115.65,73.63],[-121.24,74.58],[-121.65,73.99],[-117.69,73.22],[-120.45,72.3],[-120.84,71.53],[-123.47,71.2],[-125.83,72.08]]]},"properties":{"NAME":null,"SUBJECTO":null,"PARTOF":null}},
{"type":"Feature","geometry":{"type":"Polygon","coordinates":[[[-113.85,76.22],[-117.4,75.41],[-111.37,75.1],[-105.77,75.23],[-105.5,75.85],[-109.14,75.71],[-113.85,76.22]]]},"properties":{"NAME":null,"SUBJECTO":null,"PARTOF":null}},
{"type":"Feature","geometry":{"type":"Polygon","coordinates":[[[-122.15,76.58],[-120.45,75.95],[-118.74,76.94],[-116.24,76.78],[-116.36,77.58],[-122.15,76.58]]]},"properties":{"NAME":null,"SUBJECTO":null,"PARTOF":null}},
{"type":"Feature","geometry":{"type":"Polygon","coordinates":[[[-102.56,78.31],[-99.05,77.94],[-99.89,78.66],[-105.45,79.4],[-102.56,78.31]]]},"properties":{"NAME":null,"SUBJECTO":null,"PARTOF":null}},
{"type":"Feature","geometry":{"type":"Polygon","coordinates":[[[-101.58,75.69],[-98,75.16],[-97.82,76.48],[-101.75,76.54],[-101.58,75.69]]]},"properties":{"NAME":null,"SUBJECTO":null,"PARTOF":null}},
{"type":"Feature","geometry":{"type":"Polygon","coordinates":[[[-97.31,78.82],[-97.46,78.1],[-95.1,78.44],[-97.31,78.82]]]},"properties":{"NAME":null,"SUBJECTO":null,"PARTOF":null}},
{"type":"Feature","geometry":{"type":"Polygon","coordinates":[[[-113.16,77.79],[-110.62,77.54],[-109.66,77.95],[-113.16,77.79]]]},"properties":{"NAME":null,"SUBJECTO":null,"PARTOF":null}},
{"type":"Feature","geometry":{"type":"Polygon","coordinates":[[[-94.12,29.69],[-92.12,29.54],[-90.78,29.11],[-90.2,29.53],[-89.5,29.1],[-89.71,30.18],[-89.23,30.41],[-88.34,30.39],[-89.79,30.69],[-90.34,30.93],[-90.28,32.23],[-90.66,33.45],[-92.22,33.32],[-92.82,33.12],[-93.81,31.94],[-94.12,31.64],[-94.12,29.69]]]},"properties":{"NAME":"Marksville Culture","SUBJECTO":"Marksville Culture","PARTOF":"Marksville Culture"}},
{"type":"Feature","geometry":{"type":"Polygon","coordinates":[[[-94.28,35.13],[-95.64,35.16],[-96.26,34.62],[-95.46,33.03],[-96.04,32.99],[-94.33,32.64],[-93.81,31.94],[-92.82,33.12],[-92.22,33.32],[-93.1,34.39],[-94.28,35.13]]]},"properties":{"NAME":"Fourche Maline Culture","SUBJECTO":"Fourche Maline Culture","PARTOF":"Fourche Maline Culture"}},
{"type":"Feature","geometry":{"type":"Polygon","coordinates":[[[-93.81,31.94],[-94.33,32.64],[-96.04,32.99],[-95.47,31.69],[-94.12,31.64],[-93.81,31.94]]]},"properties":{"NAME":"Mill Creek Culture","SUBJECTO":"Mill Creek Culture","PARTOF":"Mill Creek Culture"}},
{"type":"Feature","geometry":{"type":"Polygon","coordinates":[[[-80.9,32.04],[-82.34,33.14],[-82.39,34.14],[-84.95,34.39],[-85.77,34.16],[-85.77,34.15],[-86.84,32.65],[-87.3,31.3],[-87.09,30.36],[-86.39,30.47],[-85.3,29.66],[-83.7,29.87],[-82.77,30.42],[-81.38,30],[-81.51,30.73],[-80.9,32.04]]]},"properties":{"NAME":"Swift Creek Culture","SUBJECTO":"Swift Creek Culture","PARTOF":"Swift Creek Culture"}},
{"type":"Feature","geometry":{"type":"Polygon","coordinates":[[[-88.07,35.11],[-88.41,35.47],[-89.79,35.28],[-90.62,34.17],[-89.66,33.4],[-88.38,33.19],[-87.9,34.41],[-88.07,35.11]]]},"properties":{"NAME":"Miller","SUBJECTO":"Miller","PARTOF":"Miller"}},
{"type":"Feature","geometry":{"type":"MultiPolygon","coordinates":[[[[-90.71,50.27],[-91.15,50.64],[-93.99,50.64],[-95.27,51.12],[-96.2,52.38],[-95.24,53.16],[-95.27,53.86],[-97.09,55.07],[-101.05,54.62],[-101.21,53.27],[-98.72,52.23],[-97.15,50.41],[-97.28,49.57],[-96.93,48.55],[-95.62,47.72],[-94.51,47.39],[-93.64,47.13],[-91.15,47.37],[-88.89,48.31],[-88.25,48.93],[-88.2,48.98],[-89.94,49.03],[-91.44,49.63],[-91.08,49.95],[-90.71,50.27]]],[[[-83.49,47.46],[-84.38,48.33],[-86.46,48.95],[-85.8,47.97],[-85.03,47.94],[-84.37,46.87],[-86.73,46.44],[-89.09,46.96],[-87.67,46.45],[-87.2,45.57],[-85.38,46.07],[-84.76,45.82],[-86.1,44.76],[-85.79,44.53],[-84.18,45.6],[-84.63,46.03],[-83.09,46.19],[-83.49,47.46]]]]},"properties":{"NAME":"Laurel complex","SUBJECTO":"Laurel complex","PARTOF":"Laurel complex"}},
{"type":"Feature","geometry":{"type":"Polygon","coordinates":[[[-88.07,35.11],[-87.9,34.41],[-88.38,33.19],[-88.54,32.82],[-86.99,32.82],[-86.84,32.65],[-85.77,34.15],[-85.77,34.16],[-85.85,34.43],[-86.3,34.93],[-88.07,35.11]]]},"properties":{"NAME":"Copena","SUBJECTO":"Copena","PARTOF":"Copena"}},
{"type":"Feature","geometry":{"type":"Polygon","coordinates":[[[-86.99,32.82],[-88.54,32.82],[-89.35,32.62],[-89.67,31.78],[-89.19,30.96],[-88.03,30.68],[-87.09,30.36],[-87.3,31.3],[-86.84,32.65],[-86.99,32.82]]]},"properties":{"NAME":"Porter","SUBJECTO":"Porter","PARTOF":"Porter"}},
{"type":"Feature","geometry":{"type":"Polygon","coordinates":[[[-83.74,43.62],[-84.77,43.38],[-85.33,43.99],[-86.45,44.13],[-86.49,44.02],[-86.37,42.25],[-87.03,41.69],[-87.22,41.63],[-87.38,41.63],[-87.35,41.17],[-86.52,40.74],[-85.7,41.7],[-84.74,41.72],[-84.41,43.04],[-83.74,43.62]]]},"properties":{"NAME":"Goodall Focus","SUBJECTO":"Goodall Focus","PARTOF":"Goodall Focus"}},
{"type":"Feature","geometry":{"type":"Polygon","coordinates":[[[-79.64,42.85],[-80.52,44.6],[-81.3,45.22],[-82.17,43.08],[-81.86,42.26],[-79.64,42.85]]]},"properties":{"NAME":"Saugeen Complex","SUBJECTO":"Saugeen Complex","PARTOF":"Saugeen Complex"}},
{"type":"Feature","geometry":{"type":"Polygon","coordinates":[[[-84.74,41.72],[-83.66,40.61],[-82.28,40.91],[-81.95,41.51],[-83.45,41.75],[-82.77,42.27],[-82.46,43.2],[-82.84,44.03],[-83.74,43.62],[-84.41,43.04],[-84.74,41.72]]]},"properties":{"NAME":"Couture Complex","SUBJECTO":"Couture Complex","PARTOF":"Couture Complex"}},
{"type":"Feature","geometry":{"type":"Polygon","coordinates":[[[-70.87,47.05],[-74.19,47.97],[-76.06,47.31],[-80.3,45.95],[-79.71,44.74],[-80.29,44.52],[-79.37,43.61],[-76.45,44.28],[-76.18,43.61],[-75.59,43.68],[-74.58,43.82],[-73.08,44.76],[-70.56,45.31],[-70.04,46.17],[-70.87,47.05]]]},"properties":{"NAME":"Point Peninsula","SUBJECTO":"Point Peninsula","PARTOF":"Point Peninsula"}},
{"type":"Feature","geometry":{"type":"Polygon","coordinates":[[[-87.48,41.69],[-87.79,42.83],[-88.27,42.71],[-89.32,44.49],[-92.21,45.76],[-93.49,45.19],[-91.95,43.69],[-93.62,42.75],[-94.11,42.03],[-92.57,40.87],[-92.9,40],[-94.12,40.14],[-95.36,39.95],[-95.79,37.17],[-94.9,36.25],[-94.12,36.33],[-93.2,36.41],[-93.43,38.34],[-90.04,38.6],[-90.81,38.01],[-90,37.28],[-90.27,35.79],[-88.51,36.06],[-85.56,37.55],[-82.14,36.96],[-79.98,37.58],[-78.96,39.3],[-78.29,41.02],[-75.85,42.96],[-75.59,43.68],[-76.18,43.61],[-76.86,43.27],[-78.82,43.31],[-79.19,42.85],[-79.56,42.39],[-80.29,41.34],[-82.28,40.91],[-83.66,40.61],[-85.97,40.06],[-86.55,39.41],[-89.19,39.42],[-87.35,41.17],[-87.38,41.63],[-87.48,41.69]]]},"properties":{"NAME":"Hopewell Culture","SUBJECTO":"Hopewell Culture","PARTOF":"Hopewell Culture"}},
{"type":"Feature","geometry":{"type":"Polygon","coordinates":[[[-75.59,43.68],[-75.85,42.96],[-78.29,41.02],[-78.96,39.3],[-79.98,37.58],[-82.14,36.96],[-85.56,37.55],[-88.51,36.06],[-90.27,35.79],[-90,37.28],[-90.81,38.01],[-90.04,38.6],[-93.43,38.34],[-93.2,36.41],[-94.12,36.33],[-94.12,35.88],[-94.28,35.13],[-93.1,34.39],[-92.22,33.32],[-90.66,33.45],[-90.28,32.23],[-90.34,30.93],[-89.79,30.69],[-88.34,30.39],[-88.14,30.33],[-88.03,30.68],[-89.19,30.96],[-89.67,31.78],[-89.35,32.62],[-88.54,32.82],[-88.38,33.19],[-89.66,33.4],[-90.62,34.17],[-89.79,35.28],[-88.41,35.47],[-88.07,35.11],[-86.3,34.93],[-85.85,34.43],[-85.77,34.15],[-85.77,34.16],[-84.95,34.39],[-82.39,34.14],[-82.34,33.14],[-80.9,32.04],[-78.62,33.81],[-77.96,33.93],[-75.73,35.88],[-76.28,37.06],[-76.54,38.79],[-75.67,37.9],[-74.15,39.77],[-74.29,40.63],[-72.85,41.29],[-70.3,41.76],[-71.05,42.36],[-69.92,43.91],[-68.78,44.63],[-67.17,44.71],[-67.19,45.25],[-65.76,45.29],[-64.28,45.92],[-64.46,45.39],[-66.19,44.49],[-65.47,43.52],[-63.9,44.57],[-60.96,45.3],[-64.53,46.27],[-64.98,47.33],[-66.47,48.1],[-65.21,48.12],[-64.32,48.95],[-66.03,49.17],[-68.34,48.55],[-70.87,47.05],[-70.04,46.17],[-70.56,45.31],[-73.08,44.76],[-74.58,43.82],[-75.59,43.68]]]},"properties":{"NAME":null,"SUBJECTO":null,"PARTOF":null}},
{"type":"Feature","geometry":null,"properties":{"NAME":null,"SUBJECTO":null,"PARTOF":null}},
{"type":"Feature","geometry":{"type":"Polygon","coordinates":[[[-82.43,27.83],[-82.75,27.53],[-81.1,25.13],[-80.31,25.24],[-80.05,26.55],[-80.45,27.78],[-80.61,28.56],[-81.38,30],[-82.77,30.42],[-83.7,29.87],[-82.65,28.91],[-82.43,27.83]]]},"properties":{"NAME":null,"SUBJECTO":null,"PARTOF":null}},
{"type":"Feature","geometry":null,"properties":{"NAME":null,"SUBJECTO":null,"PARTOF":null}},
{"type":"Feature","geometry":{"type":"Polygon","coordinates":[[[-82.77,42.27],[-81.86,42.26],[-82.17,43.08],[-82.46,43.2],[-82.77,42.27]]]},"properties":{"NAME":null,"SUBJECTO":null,"PARTOF":null}},
{"type":"Feature","geometry":null,"properties":{"NAME":null,"SUBJECTO":null,"PARTOF":null}},
{"type":"Feature","geometry":null,"properties":{"NAME":null,"SUBJECTO":null,"PARTOF":null}},
{"type":"Feature","geometry":null,"properties":{"NAME":null,"SUBJECTO":null,"PARTOF":null}},
{"type":"Feature","geometry":null,"properties":{"NAME":null,"SUBJECTO":null,"PARTOF":null}},
{"type":"Feature","geometry":null,"properties":{"NAME":null,"SUBJECTO":null,"PARTOF":null}},
{"type":"Feature","geometry":null,"properties":{"NAME":null,"SUBJECTO":null,"PARTOF":null}},
{"type":"Feature","geometry":{"type":"Polygon","coordinates":[[[-79.56,42.39],[-81.95,41.51],[-82.28,40.91],[-80.29,41.34],[-79.56,42.39]]]},"properties":{"NAME":null,"SUBJECTO":null,"PARTOF":null}},
{"type":"Feature","geometry":{"type":"Polygon","coordinates":[[[-87.35,41.17],[-89.19,39.42],[-86.55,39.41],[-85.97,40.06],[-83.66,40.61],[-84.74,41.72],[-85.7,41.7],[-86.52,40.74],[-87.35,41.17]]]},"properties":{"NAME":null,"SUBJECTO":null,"PARTOF":null}},
{"type":"Feature","geometry":{"type":"Polygon","coordinates":[[[-86.45,44.13],[-85.33,43.99],[-84.77,43.38],[-83.74,43.62],[-83.26,45.02],[-84.18,45.6],[-85.79,44.53],[-86.1,44.76],[-86.45,44.13],[-86.49,44.02],[-86.45,44.13]]]},"properties":{"NAME":null,"SUBJECTO":null,"PARTOF":null}},
{"type":"Feature","geometry":null,"properties":{"NAME":null,"SUBJECTO":null,"PARTOF":null}},
{"type":"Feature","geometry":null,"properties":{"NAME":null,"SUBJECTO":null,"PARTOF":null}},
{"type":"Feature","geometry":null,"properties":{"NAME":null,"SUBJECTO":null,"PARTOF":null}},
{"type":"Feature","geometry":null,"properties":{"NAME":null,"SUBJECTO":null,"PARTOF":null}},
{"type":"Feature","geometry":null,"properties":{"NAME":null,"SUBJECTO":null,"PARTOF":null}},
{"type":"Feature","geometry":null,"properties":{"NAME":null,"SUBJECTO":null,"PARTOF":null}},
{"type":"Feature","geometry":null,"properties":{"NAME":null,"SUBJECTO":null,"PARTOF":null}},
{"type":"Feature","geometry":null,"properties":{"NAME":null,"SUBJECTO":null,"PARTOF":null}},
{"type":"Feature","geometry":null,"properties":{"NAME":null,"SUBJECTO":null,"PARTOF":null}},
{"type":"Feature","geometry":null,"properties":{"NAME":null,"SUBJECTO":null,"PARTOF":null}},
{"type":"Feature","geometry":null,"properties":{"NAME":null,"SUBJECTO":null,"PARTOF":null}},
{"type":"Feature","geometry":null,"properties":{"NAME":null,"SUBJECTO":null,"PARTOF":null}},
{"type":"Feature","geometry":null,"properties":{"NAME":null,"SUBJECTO":null,"PARTOF":null}},
{"type":"Feature","geometry":null,"properties":{"NAME":null,"SUBJECTO":null,"PARTOF":null}},
{"type":"Feature","geometry":null,"properties":{"NAME":null,"SUBJECTO":null,"PARTOF":null}},
{"type":"Feature","geometry":null,"properties":{"NAME":null,"SUBJECTO":null,"PARTOF":null}},
{"type":"Feature","geometry":null,"properties":{"NAME":null,"SUBJECTO":null,"PARTOF":null}},
{"type":"Feature","geometry":null,"properties":{"NAME":null,"SUBJECTO":null,"PARTOF":null}},
{"type":"Feature","geometry":null,"properties":{"NAME":null,"SUBJECTO":null,"PARTOF":null}},
{"type":"Feature","geometry":null,"properties":{"NAME":null,"SUBJECTO":null,"PARTOF":null}},
{"type":"Feature","geometry":{"type":"Polygon","coordinates":[[[-87.79,42.83],[-87.2,45.57],[-87.67,46.45],[-89.09,46.96],[-90.88,46.6],[-92.11,46.73],[-91.15,47.37],[-93.64,47.13],[-94.51,47.39],[-94.23,46.72],[-94.12,40.14],[-92.9,40],[-92.57,40.87],[-94.11,42.03],[-93.62,42.75],[-91.95,43.69],[-93.49,45.19],[-92.21,45.76],[-89.32,44.49],[-88.27,42.71],[-87.79,42.83]]]},"properties":{"NAME":null,"SUBJECTO":null,"PARTOF":null}},
{"type":"Feature","geometry":null,"properties":{"NAME":null,"SUBJECTO":null,"PARTOF":null}},
{"type":"Feature","geometry":null,"properties":{"NAME":null,"SUBJECTO":null,"PARTOF":null}},
{"type":"Feature","geometry":null,"properties":{"NAME":null,"SUBJECTO":null,"PARTOF":null}},
{"type":"Feature","geometry":null,"properties":{"NAME":null,"SUBJECTO":null,"PARTOF":null}},
{"type":"Feature","geometry":null,"properties":{"NAME":null,"SUBJECTO":null,"PARTOF":null}},
{"type":"Feature","geometry":null,"properties":{"NAME":null,"SUBJECTO":null,"PARTOF":null}},
{"type":"Feature","geometry":null,"properties":{"NAME":null,"SUBJECTO":null,"PARTOF":null}},
{"type":"Feature","geometry":{"type":"Polygon","coordinates":[[[-78.5,43.36],[-78.22,43.37],[-78.24,43.37],[-78.5,43.36]]]},"properties":{"NAME":null,"SUBJECTO":null,"PARTOF":null}},
{"type":"Feature","geometry":null,"properties":{"NAME":null,"SUBJECTO":null,"PARTOF":null}},
{"type":"Feature","geometry":null,"properties":{"NAME":null,"SUBJECTO":null,"PARTOF":null}},
{"type":"Feature","geometry":null,"properties":{"NAME":null,"SUBJECTO":null,"PARTOF":null}},
{"type":"Feature","geometry":null,"properties":{"NAME":null,"SUBJECTO":null,"PARTOF":null}},
{"type":"Feature","geometry":null,"properties":{"NAME":null,"SUBJECTO":null,"PARTOF":null}},
{"type":"Feature","geometry":{"type":"Polygon","coordinates":[[[-80.29,44.52],[-80.52,44.6],[-79.64,42.85],[-79.19,42.85],[-78.82,43.31],[-79.37,43.61],[-80.29,44.52]]]},"properties":{"NAME":null,"SUBJECTO":null,"PARTOF":null}},
{"type":"Feature","geometry":{"type":"Polygon","coordinates":[[[-76.06,47.31],[-81.93,48.9],[-85.04,49.09],[-87.79,49.93],[-91.08,49.95],[-91.44,49.63],[-89.94,49.03],[-88.2,48.98],[-88.25,48.93],[-88.2,48.98],[-86.46,48.95],[-84.38,48.33],[-83.49,47.46],[-83.09,46.19],[-80.3,45.95],[-76.06,47.31]]]},"properties":{"NAME":null,"SUBJECTO":null,"PARTOF":null}},
{"type":"Feature","geometry":{"type":"Polygon","coordinates":[[[-76.24,-13.57],[-75.56,-12.87],[-73.89,-14.85],[-74.38,-15.82],[-71.61,-17.22],[-70.58,-18.08],[-70.15,-20.27],[-69.07,-20.07],[-68.22,-19.25],[-66.6,-19.15],[-65.91,-18.31],[-64.66,-16.8],[-64.19,-14.69],[-69.05,-8.24],[-70.16,-5.74],[-66.41,3.04],[-62.66,4.15],[-58.56,3.98],[-55.86,1.7],[-55.8,0.88],[-57.97,-0.59],[-58.44,-2.29],[-56.33,-4.33],[-54.16,-4.63],[-49.07,-4.74],[-45.37,-3.17],[-44.55,-3.1],[-44.8,-1.74],[-47.24,-0.68],[-48.04,-0.82],[-49.42,-2.36],[-49.29,-1.79],[-50.64,-1.88],[-50.98,-1.11],[-52.02,-1.57],[-51.53,-0.43],[-49.88,1.21],[-50.69,2.22],[-51.21,4.07],[-53.03,5.43],[-54.29,5.88],[-56.75,6],[-57.07,5.84],[-58.01,6.79],[-58.51,6.56],[-58.62,7.5],[-59.83,8.44],[-61.7,8.61],[-63.07,8.33],[-65.97,8.18],[-70.68,8.56],[-71.18,9.28],[-71.6,9.09],[-72.11,9.9],[-71.69,10.77],[-71.99,11.61],[-71.19,11.91],[-71.44,12.42],[-73.36,11.32],[-74.22,11.37],[-75.45,10.63],[-75.7,9.43],[-76.76,8.69],[-76.86,7.93],[-78.21,9.35],[-78.55,8.75],[-78.51,8.69],[-77.4,6.67],[-77.5,5.51],[-77.11,3.79],[-77.8,2.58],[-79.38,1.02],[-80.09,0.82],[-80.34,-0.66],[-80.87,-1.2],[-77.3,-0.89],[-74.23,-2.27],[-73.08,-4.72],[-76.45,-5.04],[-80.24,-3.48],[-81.42,-4.68],[-80.88,-5.59],[-81.3,-6.04],[-80.07,-6.76],[-79.06,-8.22],[-77.69,-10.84],[-76.24,-13.57]],[[-73.95,-9.04],[-74.12,-10.46],[-76.04,-11.38],[-77.16,-10.56],[-77.64,-9.55],[-77.43,-8.86],[-73.95,-9.04]],[[-69.86,-16.51],[-68.8,-16.38],[-68.73,-17.68],[-69.83,-17.72],[-70.34,-17.14],[-69.86,-16.51]]]},"properties":{"NAME":"Manioc farmers","SUBJECTO":"Manioc farmers","PARTOF":"Manioc farmers"}},
{"type":"Feature","geometry":{"type":"Polygon","coordinates":[[[-74.38,-15.82],[-73.89,-14.85],[-75.56,-12.87],[-76.24,-13.57],[-75.79,-14.73],[-74.38,-15.82]]]},"properties":{"NAME":"Nazca","SUBJECTO":"Nazca","PARTOF":"Nazca"}},
{"type":"Feature","geometry":null,"properties":{"NAME":null,"SUBJECTO":null,"PARTOF":null}},
{"type":"Feature","geometry":null,"properties":{"NAME":null,"SUBJECTO":null,"PARTOF":null}},
{"type":"Feature","geometry":{"type":"Polygon","coordinates":[[[5.45,5.48],[5.35,5.36],[5.36,5.37],[5.45,5.48]]]},"properties":{"NAME":null,"SUBJECTO":null,"PARTOF":null}},
{"type":"Feature","geometry":{"type":"MultiPolygon","coordinates":[]},"properties":{"NAME":null,"SUBJECTO":null,"PARTOF":null}},
{"type":"Feature","geometry":null,"properties":{"NAME":null,"SUBJECTO":null,"PARTOF":null}},
{"type":"Feature","geometry":{"type":"Polygon","coordinates":[[[35.58,5.53],[38.61,6.6],[39.14,9.06],[37.13,11.64],[34.23,11.71],[32.35,9.53],[33.02,6.86],[35.58,5.53]]]},"properties":{"NAME":null,"SUBJECTO":null,"PARTOF":null}},
{"type":"Feature","geometry":{"type":"Polygon","coordinates":[[[31.06,22.68],[31.21,24.25],[28.41,27.74],[25.45,28.98],[25.44,30.68],[22.09,31.75],[20.12,30.96],[18.92,30.2],[17.42,31],[15.84,31.29],[15.01,32.36],[12.56,32.74],[10.96,33.58],[9.83,32.92],[8.63,34.03],[-1.13,32.19],[-4.18,31.62],[-9.63,30.41],[-10.34,29.15],[-11.58,28.23],[-12.87,27.86],[-13.63,26.59],[-14.37,26.12],[-14.82,24.73],[-15.71,23.87],[-16.98,21.6],[-16.35,20.52],[-15.98,18.18],[-16.45,16.12],[-17.43,14.81],[-16.87,14.36],[-17.03,14.56],[-13.4,14.92],[-6.26,13.35],[2.35,13.29],[8.27,12.37],[17.75,12.83],[20.44,11.97],[23.2,11.78],[24.07,11.18],[30.6,11.12],[32.88,12.47],[31.8,12.52],[31.06,13.13],[30.27,15.54],[30,17.41],[29.85,20.12],[31.06,22.68]]]},"properties":{"NAME":null,"SUBJECTO":null,"PARTOF":null}},
{"type":"Feature","geometry":{"type":"Polygon","coordinates":[[[-80.45,27.78],[-80.59,28.49],[-82.43,27.83],[-82.75,27.53],[-81.1,25.13],[-80.31,25.24],[-80.05,26.55],[-80.45,27.78]]]},"properties":{"NAME":"Glades Culture","SUBJECTO":"Glades Culture","PARTOF":"Glades Culture"}},
{"type":"Feature","geometry":{"type":"Polygon","coordinates":[[[-4.15,53.23],[-4.42,53.42],[-4.57,53.27],[-4.15,53.23]]]},"properties":{"NAME":null,"SUBJECTO":null,"PARTOF":null}},
{"type":"Feature","geometry":{"type":"Polygon","coordinates":[[[-5.1,55.44],[-5.3,55.72],[-5.34,55.47],[-5.1,55.44]]]},"properties":{"NAME":null,"SUBJECTO":null,"PARTOF":null}},
{"type":"Feature","geometry":{"type":"Polygon","coordinates":[[[-6.12,55.88],[-6.45,55.85],[-6.33,55.59],[-6.12,55.88]]]},"properties":{"NAME":null,"SUBJECTO":null,"PARTOF":null}},
{"type":"Feature","geometry":{"type":"Polygon","coordinates":[[[-5.95,55.83],[-5.71,56.15],[-5.97,56.02],[-5.95,55.83]]]},"properties":{"NAME":null,"SUBJECTO":null,"PARTOF":null}},
{"type":"Feature","geometry":{"type":"Polygon","coordinates":[[[-7.47,56.94],[-7.45,57.06],[-7.56,56.95],[-7.47,56.94]]]},"properties":{"NAME":null,"SUBJECTO":null,"PARTOF":null}},
{"type":"Feature","geometry":{"type":"Polygon","coordinates":[[[-7.22,57.34],[-7.42,57.38],[-7.38,57.11],[-7.22,57.34]]]},"properties":{"NAME":null,"SUBJECTO":null,"PARTOF":null}},
{"type":"Feature","geometry":{"type":"Polygon","coordinates":[[[-7.27,57.4],[-7.2,57.46],[-7.35,57.49],[-7.27,57.4]]]},"properties":{"NAME":null,"SUBJECTO":null,"PARTOF":null}},
{"type":"Feature","geometry":{"type":"Polygon","coordinates":[[[-7.19,57.69],[-7.54,57.6],[-7.15,57.51],[-7.19,57.69]]]},"properties":{"NAME":null,"SUBJECTO":null,"PARTOF":null}},
{"type":"Feature","geometry":{"type":"Polygon","coordinates":[[[-7.01,57.88],[-6.99,57.92],[-7.07,57.9],[-7.01,57.88]]]},"properties":{"NAME":null,"SUBJECTO":null,"PARTOF":null}},
{"type":"Feature","geometry":{"type":"Polygon","coordinates":[[[-6.8,58.2],[-6.85,58.25],[-6.87,58.21],[-6.8,58.2]]]},"properties":{"NAME":null,"SUBJECTO":null,"PARTOF":null}},
{"type":"Feature","geometry":{"type":"Polygon","coordinates":[[[-6.2,58.36],[-7.03,58.24],[-6.47,57.94],[-6.2,58.36]]]},"properties":{"NAME":null,"SUBJECTO":null,"PARTOF":null}},
{"type":"Feature","geometry":{"type":"Polygon","coordinates":[[[-2.92,58.73],[-2.9,58.84],[-3.04,58.82],[-2.92,58.73]]]},"properties":{"NAME":null,"SUBJECTO":null,"PARTOF":null}},
{"type":"Feature","geometry":{"type":"Polygon","coordinates":[[[-3.23,58.78],[-3.34,58.93],[-3.43,58.87],[-3.23,58.78]]]},"properties":{"NAME":null,"SUBJECTO":null,"PARTOF":null}},
{"type":"Feature","geometry":{"type":"Polygon","coordinates":[[[-2.79,58.95],[-3.35,59.11],[-3.19,58.91],[-2.79,58.95]]]},"properties":{"NAME":null,"SUBJECTO":null,"PARTOF":null}},
{"type":"Feature","geometry":{"type":"Polygon","coordinates":[[[-2.68,59.2],[-2.39,59.28],[-2.59,59.29],[-2.68,59.2]]]},"properties":{"NAME":null,"SUBJECTO":null,"PARTOF":null}},
{"type":"Feature","geometry":{"type":"Polygon","coordinates":[[[-2.89,59.3],[-3.07,59.32],[-3,59.26],[-2.89,59.3]]]},"properties":{"NAME":null,"SUBJECTO":null,"PARTOF":null}},
{"type":"Feature","geometry":{"type":"Polygon","coordinates":[[[-1.3,60.49],[-1.26,59.86],[-1.04,60.45],[-1.3,60.49]]]},"properties":{"NAME":null,"SUBJECTO":null,"PARTOF":null}},
{"type":"Feature","geometry":{"type":"Polygon","coordinates":[[[-1.03,60.5],[-1,60.72],[-1.18,60.64],[-1.03,60.5]]]},"properties":{"NAME":null,"SUBJECTO":null,"PARTOF":null}},
{"type":"Feature","geometry":{"type":"Polygon","coordinates":[[[-0.82,60.69],[-0.88,60.84],[-0.97,60.69],[-0.82,60.69]]]},"properties":{"NAME":null,"SUBJECTO":null,"PARTOF":null}},
{"type":"Feature","geometry":{"type":"Polygon","coordinates":[[[-6.71,61.94],[-7.19,62.31],[-7.23,62.17],[-6.71,61.94]]]},"properties":{"NAME":null,"SUBJECTO":null,"PARTOF":null}},
{"type":"Feature","geometry":{"type":"Polygon","coordinates":[[[-4.78,54.06],[-4.39,54.19],[-4.37,54.42],[-4.78,54.06]]]},"properties":{"NAME":null,"SUBJECTO":null,"PARTOF":null}},
{"type":"Feature","geometry":{"type":"Polygon","coordinates":[[[18.21,56.91],[19,57.91],[18.11,57.52],[18.21,56.91]]]},"properties":{"NAME":null,"SUBJECTO":null,"PARTOF":null}},
{"type":"Feature","geometry":{"type":"Polygon","coordinates":[[[129.72,28.45],[129.14,28.25],[129.37,28.12],[129.72,28.45]]]},"properties":{"NAME":null,"SUBJECTO":null,"PARTOF":null}},
{"type":"Feature","geometry":{"type":"Polygon","coordinates":[[[129.96,29.96],[129.94,30],[129.94,29.97],[129.96,29.96]]]},"properties":{"NAME":null,"SUBJECTO":null,"PARTOF":null}},
{"type":"Feature","geometry":{"type":"Polygon","coordinates":[[[129.9,29.87],[129.85,29.85],[129.92,29.82],[129.9,29.87]]]},"properties":{"NAME":null,"SUBJECTO":null,"PARTOF":null}},
{"type":"Feature","geometry":{"type":"Polygon","coordinates":[[[130.91,30.35],[131.05,30.84],[130.87,30.47],[130.91,30.35]]]},"properties":{"NAME":null,"SUBJECTO":null,"PARTOF":null}},
{"type":"Feature","geometry":{"type":"Polygon","coordinates":[[[130.56,30.24],[130.67,30.37],[130.39,30.4],[130.56,30.24]]]},"properties":{"NAME":null,"SUBJECTO":null,"PARTOF":null}},
{"type":"Feature","geometry":{"type":"Polygon","coordinates":[[[121.73,25.14],[121,25],[120.06,23.15],[120.7,21.95],[121.84,24.48],[121.73,25.14]]]},"properties":{"NAME":null,"SUBJECTO":null,"PARTOF":null}},
{"type":"Feature","geometry":{"type":"Polygon","coordinates":[[[128.9,32.64],[128.65,32.78],[128.61,32.61],[128.9,32.64]]]},"properties":{"NAME":null,"SUBJECTO":null,"PARTOF":null}},
{"type":"Feature","geometry":{"type":"Polygon","coordinates":[[[126.48,36.92],[126.12,36.71],[126.5,36.72],[126.54,36.14],[126.29,34.59],[127.64,34.62],[129.14,35.11],[129.34,37.26],[128.26,38.41],[127.13,38.3],[126.66,37.25],[126.5,36.87],[126.47,36.84],[126.48,36.92]]]},"properties":{"NAME":null,"SUBJECTO":null,"PARTOF":null}},
{"type":"Feature","geometry":{"type":"Polygon","coordinates":[[[123.87,24.25],[123.77,24.41],[123.68,24.32],[123.87,24.25]]]},"properties":{"NAME":null,"SUBJECTO":null,"PARTOF":null}},
{"type":"Feature","geometry":{"type":"Polygon","coordinates":[[[125.36,24.78],[125.26,24.88],[125.25,24.74],[125.36,24.78]]]},"properties":{"NAME":null,"SUBJECTO":null,"PARTOF":null}},
{"type":"Feature","geometry":{"type":"Polygon","coordinates":[[[124.26,24.46],[124.09,24.44],[124.23,24.34],[124.26,24.46]]]},"properties":{"NAME":null,"SUBJECTO":null,"PARTOF":null}},
{"type":"Feature","geometry":{"type":"Polygon","coordinates":[[[128.25,26.64],[128.25,26.84],[127.72,26.44],[128.25,26.64]]]},"properties":{"NAME":null,"SUBJECTO":null,"PARTOF":null}},
{"type":"Feature","geometry":{"type":"Polygon","coordinates":[[[126.76,26.39],[126.69,26.37],[126.78,26.3],[126.76,26.39]]]},"properties":{"NAME":null,"SUBJECTO":null,"PARTOF":null}},
{"type":"Feature","geometry":{"type":"Polygon","coordinates":[[[128.95,27.68],[129.03,27.77],[128.9,27.9],[128.95,27.68]]]},"properties":{"NAME":null,"SUBJECTO":null,"PARTOF":null}},
{"type":"Feature","geometry":{"type":"Polygon","coordinates":[[[128.61,27.36],[128.7,27.45],[128.52,27.41],[128.61,27.36]]]},"properties":{"NAME":null,"SUBJECTO":null,"PARTOF":null}},
{"type":"Feature","geometry":{"type":"Polygon","coordinates":[[[129.99,28.28],[130.03,28.37],[129.92,28.29],[129.99,28.28]]]},"properties":{"NAME":null,"SUBJECTO":null,"PARTOF":null}},
{"type":"Feature","geometry":{"type":"Polygon","coordinates":[[[129.34,28.08],[129.22,28.18],[129.22,28.1],[129.34,28.08]]]},"properties":{"NAME":null,"SUBJECTO":null,"PARTOF":null}},
{"type":"Feature","geometry":{"type":"Polygon","coordinates":[[[129.73,29.61],[129.75,29.65],[129.71,29.65],[129.73,29.61]]]},"properties":{"NAME":null,"SUBJECTO":null,"PARTOF":null}},
{"type":"Feature","geometry":{"type":"Polygon","coordinates":[[[18.97,52.74],[19.4,54.28],[18.03,54.83],[15.09,54],[15.47,53.8],[17.56,52.59],[18.97,52.74]]]},"properties":{"NAME":"Pomeranian culture ","SUBJECTO":"Pomeranian culture ","PARTOF":"Baltic archeological cultures"}},
{"type":"Feature","geometry":{"type":"Polygon","coordinates":[[[21.16,54.9],[19.82,54.46],[19.91,54.39],[21.48,54.44],[21.16,54.9]]]},"properties":{"NAME":"Sambian-Nothangian culture","SUBJECTO":"Sambian-Nothangian culture","PARTOF":"Baltic archeological cultures"}},
{"type":"Feature","geometry":{"type":"Polygon","coordinates":[[[20.99,52.62],[18.97,52.74],[17.56,52.59],[15.47,53.8],[15.1,53.09],[16.33,52.04],[16.45,51.27],[17.89,50.63],[18.41,49.55],[21.14,49.76],[22.43,50.53],[25.1,48.83],[25.72,49.61],[24.49,51.38],[23.31,51.21],[20.99,52.62]]]},"properties":{"NAME":"Bell-shaped burials culture","SUBJECTO":"Bell-shaped burials culture","PARTOF":"Baltic archeological cultures"}},
{"type":"Feature","geometry":{"type":"Polygon","coordinates":[[[21.48,54.44],[19.91,54.39],[19.82,54.46],[19.4,54.28],[18.97,52.74],[20.99,52.62],[21.86,53.07],[22.13,54.33],[21.48,54.44]]]},"properties":{"NAME":"Western Masurian culture","SUBJECTO":"Western Masurian culture","PARTOF":"Baltic archeological cultures"}},
{"type":"Feature","geometry":{"type":"Polygon","coordinates":[[[24.49,51.38],[24.78,51.53],[25.06,51.98],[23.92,54.88],[21.98,54.99],[21.17,54.92],[21.16,54.9],[21.48,54.44],[22.13,54.33],[21.86,53.07],[20.99,52.62],[23.31,51.21],[24.49,51.38]]]},"properties":{"NAME":"Eastern Masurian culture","SUBJECTO":"Eastern Masurian culture","PARTOF":"Baltic archeological cultures"}},
{"type":"Feature","geometry":{"type":"Polygon","coordinates":[[[21.86,57.6],[21.07,56.85],[21.17,54.92],[21.98,54.99],[22.82,56.14],[21.86,57.6]]]},"properties":{"NAME":"Curonians","SUBJECTO":"Curonians","PARTOF":"Baltic archeological cultures"}},
{"type":"Feature","geometry":{"type":"Polygon","coordinates":[[[29.7,55.66],[25.72,57],[24.31,57.1],[21.86,57.6],[22.82,56.14],[21.98,54.99],[23.92,54.88],[25.06,51.98],[27.78,52.31],[29.71,53.3],[28.98,54.62],[29.7,55.66]]]},"properties":{"NAME":"Brushed Pottery culture","SUBJECTO":"Brushed Pottery culture","PARTOF":"Baltic archeological cultures"}},
{"type":"Feature","geometry":{"type":"Polygon","coordinates":[[[29.71,53.3],[27.78,52.31],[25.06,51.98],[24.78,51.53],[26.22,50.94],[27.8,50.92],[30.59,50.16],[31.56,50.9],[32.06,52.12],[31.8,52.88],[29.71,53.3]]]},"properties":{"NAME":"Milograd culture","SUBJECTO":"Milograd culture","PARTOF":"Baltic archeological cultures"}},
{"type":"Feature","geometry":{"type":"Polygon","coordinates":[[[31.56,50.9],[34.91,51.48],[38.31,53.65],[36.96,54.29],[38.46,55.93],[36.72,56.68],[33.73,56.73],[29.7,55.66],[28.98,54.62],[29.71,53.3],[31.8,52.88],[32.06,52.12],[31.56,50.9]]]},"properties":{"NAME":"Plain-Pottery culture","SUBJECTO":"Plain-Pottery culture","PARTOF":"Baltic archeological cultures"}},
{"type":"Feature","geometry":{"type":"MultiPolygon","coordinates":[]},"properties":{"NAME":null,"SUBJECTO":null,"PARTOF":null}},
{"type":"Feature","geometry":null,"properties":{"NAME":null,"SUBJECTO":null,"PARTOF":null}},
{"type":"Feature","geometry":{"type":"Polygon","coordinates":[[[89.8,75.52],[91.63,75.65],[90,75.6],[89.8,75.52]]]},"properties":{"NAME":null,"SUBJECTO":null,"PARTOF":null}},
{"type":"Feature","geometry":{"type":"MultiPolygon","coordinates":[]},"properties":{"NAME":null,"SUBJECTO":null,"PARTOF":null}},
{"type":"Feature","geometry":null,"properties":{"NAME":null,"SUBJECTO":null,"PARTOF":null}},
{"type":"Feature","geometry":{"type":"Polygon","coordinates":[[[124.22,73.7],[123.41,73.48],[123.5,73.5],[124.22,73.7]]]},"properties":{"NAME":null,"SUBJECTO":null,"PARTOF":null}},
{"type":"Feature","geometry":{"type":"Polygon","coordinates":[[[11.53,61.9],[10.16,64.1],[9.22,63.28],[7.09,62.91],[5.15,61.74],[5.09,59.51],[6.24,59.28],[5.4,58.72],[6.96,57.97],[8.15,58.09],[10.41,59.5],[12.29,56.88],[12.8,55.35],[14.12,55.35],[14.65,56.12],[15.77,56.03],[16.66,57.44],[16.44,58.63],[19.04,59.71],[17.19,60.67],[17.29,62.44],[17.94,62.55],[16.57,62.52],[15.43,61.87],[11.53,61.9]]]},"properties":{"NAME":null,"SUBJECTO":null,"PARTOF":null}},
{"type":"Feature","geometry":null,"properties":{"NAME":null,"SUBJECTO":null,"PARTOF":null}},
{"type":"Feature","geometry":null,"properties":{"NAME":null,"SUBJECTO":null,"PARTOF":null}},
{"type":"Feature","geometry":{"type":"Polygon","coordinates":[[[-73.95,-9.04],[-77.43,-8.86],[-77.64,-9.55],[-77.16,-10.56],[-76.04,-11.38],[-74.12,-10.46],[-73.95,-9.04]]]},"properties":{"NAME":"Chavin","SUBJECTO":"Chavin","PARTOF":"Chavin"}},
{"type":"Feature","geometry":{"type":"Polygon","coordinates":[[[107.31,53.07],[107.77,53.27],[107,53.11],[107.31,53.07]]]},"properties":{"NAME":null,"SUBJECTO":null,"PARTOF":null}},
{"type":"Feature","geometry":{"type":"Polygon","coordinates":[[[46.87,50.34],[35.18,49.29],[28.85,47.15],[29.16,46.69],[27.94,44.93],[27.58,43.79],[28.17,43.45],[28.69,44.49],[30.83,46.58],[33.64,45.93],[32.5,45.45],[33.56,44.94],[35.03,45.53],[33.84,46.19],[35.21,46.64],[37.77,48.64],[39.78,48.78],[40.32,48.24],[39.25,45.96],[37.77,44.74],[40.25,43.27],[41.41,42.79],[41.68,41.79],[44.79,41.75],[47.01,41.39],[48.96,40.32],[49.67,40.24],[50.47,40.26],[49.35,40.95],[47.57,43.01],[47.57,43.84],[46.85,44.45],[47.67,45.75],[49.76,46.54],[46.87,50.34]]]},"properties":{"NAME":"Sarmates","SUBJECTO":"Sarmates","PARTOF":"Scythians"}},
{"type":"Feature","geometry":{"type":"Polygon","coordinates":[[[26.25,41.46],[26.81,41.35],[26.8,41.34],[27.93,40.96],[29.08,41.2],[28.1,41.59],[27.5,42.52],[28.17,43.45],[27.58,43.79],[27.18,43.26],[26.57,47.13],[21.71,46.25],[21.9,43.32],[23.04,41.8],[26.25,41.46]]]},"properties":{"NAME":"Dacians","SUBJECTO":"Dacians","PARTOF":"Dacians"}},
{"type":"Feature","geometry":{"type":"Polygon","coordinates":[[[126.5,36.87],[126.48,36.92],[126.47,36.84],[126.5,36.87]]]},"properties":{"NAME":null,"SUBJECTO":null,"PARTOF":null}},
{"type":"Feature","geometry":{"type":"Polygon","coordinates":[[[26.74,41.36],[26.8,41.34],[26.81,41.35],[26.74,41.36]]]},"properties":{"NAME":null,"SUBJECTO":null,"PARTOF":null}},
{"type":"Feature","geometry":{"type":"Polygon","coordinates":[[[66.15,39.69],[65.21,42.85],[68.56,46.36],[54.54,51.03],[46.87,50.34],[49.76,46.54],[51.37,47.09],[53.19,46.87],[52.84,45.51],[51.51,45.37],[51.58,44.55],[50.33,44.56],[52.52,42.07],[53.99,42.11],[54.75,41.14],[54.42,40.66],[53.26,40.76],[53.05,40],[54.07,38.9],[53.99,37.52],[56.02,38.04],[56.84,39.14],[58.21,39],[61.16,37.7],[66.15,39.69]],[[61.31,46.68],[61.11,44.72],[60.08,43.61],[58.37,43.74],[58.2,44.52],[58.82,45.93],[60.01,46.56],[61.31,46.68]]]},"properties":{"NAME":"Scythians","SUBJECTO":"Scythians","PARTOF":"Scythians"}},
{"type":"Feature","geometry":{"type":"Polygon","coordinates":[[[68.56,46.36],[65.21,42.85],[66.15,39.69],[72.28,40.99],[72.49,40.24],[73.58,40.03],[77.35,40.03],[80.22,41.41],[77.51,44.64],[74.15,45.24],[73.79,45.31],[68.56,46.36]],[[78.14,42.61],[77.51,42.18],[76.26,42.33],[78.14,42.61]]]},"properties":{"NAME":"Saces","SUBJECTO":"Saces","PARTOF":"Scythians"}},
{"type":"Feature","geometry":{"type":"Polygon","coordinates":[[[100.73,51.14],[100.3,51.11],[100.25,50.74],[100.68,51.02],[100.73,51.14]]]},"properties":{"NAME":"Hövsgöl Nuur","SUBJECTO":"Hövsgöl Nuur","PARTOF":"Hövsgöl Nuur"}},
{"type":"Feature","geometry":{"type":"Polygon","coordinates":[[[75.6,37.54],[80.53,36.17],[84.4,35.39],[83.24,27.39],[86.18,26.41],[87.93,26.06],[89.76,25.98],[93.07,26.85],[93.77,26.5],[93.42,25.02],[91.57,22.54],[92.04,23.12],[92.9,21.61],[93.11,20.59],[94.42,18.14],[94.14,16.01],[94.82,16.21],[95.33,15.68],[96.47,16.51],[96.88,17.35],[97.57,16.45],[97.82,14.62],[98.87,11.65],[98.4,10.56],[98.63,10.1],[98.18,8.6],[99.02,7.87],[100.14,6.18],[100.66,3.9],[101.34,2.78],[103.43,1.38],[104.18,1.39],[103.31,3.03],[103.34,4.81],[101.56,6.74],[100.61,6.98],[99.72,9.26],[99.3,9.16],[99.19,10.49],[99.9,12.08],[99.93,13.26],[100.91,13.45],[100.87,12.68],[101.92,12.59],[102.66,12.07],[103.04,10.9],[104.98,9.98],[104.74,8.49],[106.48,9.55],[106.77,10.64],[107.41,10.37],[109.07,11.64],[109.31,12.91],[108.79,15.09],[108.24,16.08],[106.43,17.55],[105.53,18.84],[105.84,19.7],[104.74,20.54],[104.95,22.05],[106.87,22.67],[111.26,22.84],[110.85,24.87],[109.61,26.58],[108.17,27.54],[105.08,28.02],[102.13,28.02],[101.58,28.71],[101.65,29.53],[103.62,34.04],[104.74,36.6],[104.4,37.22],[106.04,37.56],[94.98,41.22],[85.41,48.36],[95.82,51.18],[100.29,51.09],[100.3,51.11],[100.73,51.14],[100.71,51.09],[107.07,50.97],[124.2,50.33],[131.08,46.2],[125.88,41.48],[123.75,41.68],[124.1,39.88],[125.3,39.36],[124.69,38.14],[125.27,37.48],[126.36,37.72],[126.41,37.59],[126.66,37.25],[127.13,38.3],[128.26,38.41],[127.28,39.22],[127.67,39.87],[129.48,40.68],[129.64,41.66],[131.58,43.21],[132.95,42.67],[134.14,42.99],[136.03,44.4],[137.72,46],[140.08,48.5],[140.32,50.52],[141.26,52.1],[141.05,52.69],[134.87,52.01],[127.34,49.98],[119.94,51.26],[116.71,54.66],[114.02,59.55],[107.96,59.82],[99.49,55.66],[99.54,55.28],[93.7,56.48],[78.36,56.41],[65.31,55.05],[59.09,56.43],[53.98,57.71],[46.11,57.71],[32.52,60.93],[29.02,61.77],[21.2,62.44],[21.56,60.51],[23.2,59.82],[28.52,60.62],[29.08,59.91],[27.7,59.3],[25.45,59.49],[23.42,59.12],[24.5,58.21],[24.31,57.1],[25.72,57],[29.7,55.66],[33.73,56.73],[36.72,56.68],[38.46,55.93],[36.96,54.29],[38.31,53.65],[34.91,51.48],[31.56,50.9],[30.59,50.16],[27.8,50.92],[26.22,50.94],[24.78,51.53],[24.49,51.38],[25.72,49.61],[25.1,48.83],[22.43,50.53],[21.14,49.76],[18.41,49.55],[17.89,50.63],[16.45,51.27],[16.33,52.04],[15.1,53.09],[15.47,53.8],[15.09,54],[14.47,53.88],[12.94,54.35],[10.72,53.96],[9.42,54.98],[10.22,56.85],[8.18,56.43],[8.95,54.01],[8.5,53.45],[5.39,53.14],[5.76,52.33],[4.26,52.07],[1.59,50.82],[1.55,50.23],[-0.24,49.29],[-1.94,49.71],[-1.46,48.68],[-3.09,48.87],[-4.76,48.55],[-2,47.04],[-1.08,46.01],[-1.56,43.52],[-3.42,43.38],[-7.64,43.72],[-9.27,43.05],[-8.83,41.87],[-1.73,41.81],[-1.36,42.21],[2.12,42.4],[4.28,45.06],[4.69,44.05],[6.2,44.04],[7.07,43.54],[7.3,43.67],[6.81,45.83],[7.35,46.5],[10.03,46.5],[10.97,46.9],[13.78,46.77],[13.67,45.71],[16.06,43.43],[16.99,43.32],[19.61,41.76],[22.95,41.91],[21.9,43.32],[21.71,46.25],[26.57,47.13],[27.18,43.26],[27.58,43.79],[27.94,44.93],[29.16,46.69],[28.85,47.15],[35.18,49.29],[46.87,50.34],[54.54,51.03],[68.56,46.36],[73.79,45.31],[73.44,45.66],[74.63,46.75],[75.4,46.61],[74.28,46],[74.15,45.24],[77.51,44.64],[80.22,41.41],[77.35,40.03],[77.84,39.62],[75.6,37.54]],[[109.76,55.77],[108.93,53.34],[105.17,51.91],[106.45,52.66],[107.07,53.24],[107.53,53.44],[108.47,54.28],[109.76,55.77]]]},"properties":{"NAME":null,"SUBJECTO":null,"PARTOF":null}},
{"type":"Feature","geometry":{"type":"Polygon","coordinates":[[[75.6,37.54],[74.75,36.53],[74.23,34.18],[76.6,31.04],[78.87,29.33],[80.66,28.45],[83.24,27.39],[84.4,35.39],[80.53,36.17],[75.6,37.54]]]},"properties":{"NAME":"Zhangzhung Kingdom","SUBJECTO":"Zhangzhung Kingdom","PARTOF":"Zhangzhung Kingdom"}},
{"type":"Feature","geometry":{"type":"Polygon","coordinates":[[[93.11,20.59],[92.9,21.61],[92.04,23.12],[91.57,22.54],[92.18,20.89],[93.11,20.59]]]},"properties":{"NAME":"Arakan","SUBJECTO":"Arakan","PARTOF":"Arakan"}},
{"type":"Feature","geometry":{"type":"Polygon","coordinates":[[[72.68,22.03],[79.83,26.69],[80.66,28.45],[78.87,29.33],[76.6,31.04],[74.23,34.18],[74.75,36.53],[75.6,37.54],[77.84,39.62],[77.35,40.03],[73.58,40.03],[72.49,40.24],[72.28,40.99],[66.15,39.69],[61.16,37.7],[60.34,35.98],[60.96,34.61],[61.3,32.83],[60.62,31.32],[60.2,29.81],[60.68,28.64],[60.34,27.89],[58.42,27.75],[58.74,25.54],[61.34,25.03],[66.62,25.32],[67.32,24.09],[69.11,22.9],[70.41,22.75],[68.89,22.29],[70.21,20.95],[71.02,20.66],[72.12,21.16],[72.68,22.03]]]},"properties":{"NAME":"Kushan Empire","SUBJECTO":"Kushan Empire","PARTOF":"Kushan Empire"}}
]}